{"type":"FeatureCollection","features":[{"type":"Feature","properties":{"id":"L1","name":"L1"},"geometry":{"type":"MultiPolygon","coordinates":[[[[103.64091,1.36639],[103.67612,1.34979],[103.67575,1.34649],[103.67338,1.34649],[103.6734,1.34295],[103.67563,1.34297],[103.67583,1.34056],[103.67749,1.33904],[103.67576,1.33284],[103.67485,1.33108],[103.67387,1.33044],[103.67138,1.32991],[103.66702,1.32745],[103.66632,1.3269],[103.66335,1.32287],[103.63739,1.3476],[103.63619,1.34551],[103.63551,1.34539],[103.63497,1.3458],[103.63419,1.34741],[103.6344,1.34958],[103.63316,1.35056],[103.63595,1.3573],[103.64091,1.36639]]]]}},{"type":"Feature","properties":{"id":"L2","name":"L2"},"geometry":{"type":"MultiPolygon","coordinates":[[[[103.6734,1.35107],[103.64091,1.36639],[103.65089,1.38626],[103.65443,1.38446],[103.66298,1.38186],[103.66745,1.38294],[103.67293,1.38316],[103.67347,1.38173],[103.6744,1.38075],[103.67574,1.37956],[103.67651,1.37943],[103.67774,1.37981],[103.67935,1.38323],[103.68057,1.38284],[103.68052,1.37991],[103.67934,1.37811],[103.68033,1.37646],[103.68025,1.37439],[103.6807,1.37303],[103.67998,1.37137],[103.67877,1.37063],[103.67995,1.36958],[103.68266,1.36934],[103.68225,1.36776],[103.68259,1.36632],[103.68173,1.36413],[103.68142,1.36188],[103.67963,1.36068],[103.67832,1.35914],[103.67827,1.3579],[103.67711,1.35558],[103.67605,1.35575],[103.67448,1.35527],[103.6731,1.35335],[103.6734,1.35107]]]]}},{"type":"Feature","properties":{"id":"02","name":"02"},"geometry":{"type":"MultiPolygon","coordinates":[[[[103.67612,1.34979],[103.6734,1.35107],[103.6731,1.35335],[103.67448,1.35527],[103.67605,1.35575],[103.67711,1.35558],[103.67827,1.3579],[103.67832,1.35914],[103.67963,1.36068],[103.68142,1.36188],[103.68173,1.36413],[103.68259,1.36632],[103.68225,1.36776],[103.68266,1.36934],[103.67995,1.36958],[103.67877,1.37063],[103.67998,1.37137],[103.68108,1.37276],[103.68186,1.37294],[103.68353,1.37235],[103.6865,1.3702],[103.68727,1.36994],[103.68836,1.37043],[103.68939,1.3717],[103.69068,1.3723],[103.69225,1.37404],[103.69513,1.37383],[103.69426,1.37136],[103.69379,1.3668],[103.69269,1.36398],[103.69441,1.3586],[103.69521,1.3571],[103.69602,1.35637],[103.70235,1.3518],[103.70512,1.34707],[103.70005,1.34456],[103.69639,1.34166],[103.68756,1.32995],[103.68653,1.32966],[103.67387,1.33044],[103.67539,1.33176],[103.67749,1.33904],[103.67583,1.34056],[103.67563,1.34297],[103.6734,1.34295],[103.67338,1.34649],[103.67575,1.34649],[103.67612,1.34979]]]]}},{"type":"Feature","properties":{"id":"1N","name":"1N"},"geometry":{"type":"MultiPolygon","coordinates":[[[[103.67268,1.33023],[103.67537,1.33045],[103.67945,1.33017],[103.67857,1.30993],[103.68017,1.29721],[103.67474,1.29553],[103.66657,1.28871],[103.65186,1.28038],[103.64588,1.27883],[103.6053,1.27956],[103.6145,1.31423],[103.6154,1.31535],[103.61615,1.32155],[103.62837,1.34098],[103.63316,1.35056],[103.6344,1.34958],[103.63419,1.34741],[103.63522,1.34556],[103.63619,1.34551],[103.63739,1.3476],[103.66335,1.32287],[103.66632,1.3269],[103.6704,1.3294],[103.67268,1.33023]]]]}},{"type":"Feature","properties":{"id":"L3","name":"L3"},"geometry":{"type":"MultiPolygon","coordinates":[[[[103.65443,1.38446],[103.65089,1.38626],[103.65128,1.387],[103.65182,1.3912],[103.65555,1.40031],[103.66257,1.41062],[103.67697,1.40089],[103.67889,1.40054],[103.68527,1.40073],[103.68526,1.39855],[103.68392,1.39648],[103.68376,1.39479],[103.68418,1.39407],[103.68473,1.39405],[103.68656,1.39473],[103.68738,1.39109],[103.68527,1.38649],[103.68166,1.38699],[103.68061,1.38655],[103.68057,1.38284],[103.67935,1.38323],[103.67774,1.37981],[103.67651,1.37943],[103.67574,1.37956],[103.67347,1.38173],[103.67293,1.38316],[103.66745,1.38294],[103.66298,1.38186],[103.65443,1.38446]]]]}},{"type":"Feature","properties":{"id":"3S","name":"3S"},"geometry":{"type":"MultiPolygon","coordinates":[[[[103.68071,1.38235],[103.68046,1.3832],[103.68061,1.38655],[103.68166,1.38699],[103.68527,1.38649],[103.68738,1.39109],[103.68656,1.39473],[103.68473,1.39405],[103.68418,1.39407],[103.68376,1.39479],[103.68392,1.39648],[103.68526,1.39855],[103.68525,1.40074],[103.68925,1.40097],[103.69015,1.40152],[103.69373,1.40105],[103.69541,1.40115],[103.69779,1.4021],[103.69823,1.4029],[103.69875,1.40296],[103.70058,1.4021],[103.69644,1.37855],[103.69513,1.37383],[103.69225,1.37404],[103.69068,1.3723],[103.68923,1.37158],[103.68836,1.37043],[103.6871,1.36991],[103.68258,1.3728],[103.68186,1.37294],[103.68057,1.37237],[103.6807,1.37303],[103.68025,1.37439],[103.68033,1.37646],[103.67934,1.37811],[103.68052,1.37991],[103.68071,1.38235]]]]}},{"type":"Feature","properties":{"id":"L4","name":"L4"},"geometry":{"type":"MultiPolygon","coordinates":[[[[103.67697,1.40089],[103.66257,1.41062],[103.66781,1.41564],[103.67148,1.42586],[103.67692,1.42536],[103.67749,1.42598],[103.67839,1.42595],[103.6785,1.42652],[103.67894,1.42651],[103.68025,1.42487],[103.68374,1.42447],[103.68423,1.42288],[103.68515,1.42222],[103.68473,1.42526],[103.68507,1.42637],[103.68565,1.42661],[103.68861,1.42568],[103.69024,1.42437],[103.68992,1.42542],[103.69062,1.42535],[103.69166,1.42413],[103.69239,1.42412],[103.69311,1.42359],[103.69347,1.42282],[103.69281,1.42197],[103.69253,1.42091],[103.69133,1.42062],[103.69091,1.41925],[103.68891,1.42036],[103.68682,1.41957],[103.68512,1.41598],[103.68614,1.41183],[103.68574,1.41037],[103.68459,1.40938],[103.68497,1.40722],[103.68379,1.40428],[103.68351,1.4019],[103.68525,1.40074],[103.67889,1.40054],[103.67697,1.40089]]]]}},{"type":"Feature","properties":{"id":"04","name":"04"},"geometry":{"type":"MultiPolygon","coordinates":[[[[103.67692,1.42536],[103.67148,1.42586],[103.67226,1.42803],[103.6817,1.43714],[103.69241,1.43978],[103.69723,1.44319],[103.70211,1.45068],[103.71248,1.45736],[103.7267,1.46003],[103.73816,1.45451],[103.74347,1.4513],[103.73791,1.44225],[103.73854,1.43936],[103.73844,1.43812],[103.73759,1.43634],[103.73824,1.43368],[103.73827,1.42996],[103.7361,1.42358],[103.73604,1.42122],[103.72998,1.41524],[103.72553,1.41409],[103.7255,1.41297],[103.72505,1.41278],[103.72151,1.41186],[103.71931,1.41213],[103.71602,1.41486],[103.71542,1.41496],[103.71496,1.41486],[103.71388,1.41353],[103.70984,1.4125],[103.70544,1.41243],[103.70448,1.413],[103.70088,1.41656],[103.70333,1.42207],[103.69548,1.42481],[103.69503,1.42344],[103.69347,1.42282],[103.69311,1.42359],[103.69239,1.42412],[103.69166,1.42413],[103.69062,1.42535],[103.68992,1.42542],[103.69024,1.42437],[103.68861,1.42568],[103.68565,1.42661],[103.68507,1.42637],[103.68473,1.42526],[103.68515,1.42222],[103.68423,1.42288],[103.68374,1.42447],[103.68025,1.42487],[103.67894,1.42651],[103.6785,1.42652],[103.67839,1.42595],[103.67749,1.42598],[103.67692,1.42536]]]]}},{"type":"Feature","properties":{"id":"3N","name":"3N"},"geometry":{"type":"MultiPolygon","coordinates":[[[[103.69331,1.42268],[103.69503,1.42344],[103.69548,1.42481],[103.70333,1.42207],[103.69959,1.41382],[103.69957,1.41274],[103.70214,1.40588],[103.70196,1.40503],[103.70058,1.4021],[103.69875,1.40296],[103.69823,1.4029],[103.69779,1.4021],[103.69541,1.40115],[103.69373,1.40105],[103.69015,1.40152],[103.68925,1.40097],[103.68525,1.40074],[103.68351,1.4019],[103.68379,1.40428],[103.68497,1.40722],[103.68459,1.40938],[103.68574,1.41037],[103.68614,1.41183],[103.68517,1.4157],[103.68524,1.41636],[103.68682,1.41957],[103.68891,1.42036],[103.69091,1.41925],[103.69133,1.42062],[103.69253,1.42091],[103.69331,1.42268]]]]}},{"type":"Feature","properties":{"id":"05","name":"05"},"geometry":{"type":"MultiPolygon","coordinates":[[[[103.69512,1.37381],[103.69644,1.37855],[103.70048,1.40184],[103.70214,1.40588],[103.69957,1.41274],[103.69959,1.41382],[103.70088,1.41656],[103.70448,1.413],[103.70544,1.41243],[103.70984,1.4125],[103.71388,1.41353],[103.71496,1.41486],[103.71542,1.41496],[103.71602,1.41486],[103.71866,1.41243],[103.72011,1.41196],[103.72151,1.41186],[103.7255,1.41297],[103.72544,1.41077],[103.7263,1.40897],[103.72937,1.40423],[103.72978,1.40285],[103.73309,1.3981],[103.73361,1.39595],[103.73389,1.39129],[103.73244,1.3842],[103.73244,1.38028],[103.73283,1.37906],[103.73678,1.37525],[103.73855,1.37401],[103.74323,1.37226],[103.74534,1.37177],[103.74856,1.36907],[103.74461,1.36557],[103.73699,1.35675],[103.73658,1.35576],[103.7365,1.35447],[103.73791,1.35086],[103.73822,1.34933],[103.73811,1.34817],[103.73718,1.34599],[103.73104,1.35185],[103.72618,1.3546],[103.72187,1.35534],[103.71793,1.35498],[103.71601,1.35446],[103.70512,1.34707],[103.70235,1.3518],[103.69602,1.35637],[103.69521,1.3571],[103.69441,1.3586],[103.69269,1.36398],[103.69379,1.3668],[103.69426,1.37136],[103.69512,1.37381]]]]}},{"type":"Feature","properties":{"id":"8N","name":"8N"},"geometry":{"type":"MultiPolygon","coordinates":[[[[103.70352,1.34627],[103.70542,1.34722],[103.71601,1.35446],[103.71793,1.35498],[103.72187,1.35534],[103.72618,1.3546],[103.73104,1.35185],[103.73718,1.34599],[103.73895,1.34527],[103.7435,1.34453],[103.76446,1.33269],[103.76527,1.33245],[103.76668,1.33222],[103.76891,1.33245],[103.77332,1.33429],[103.77684,1.33687],[103.77875,1.34063],[103.77929,1.33976],[103.77933,1.33884],[103.77791,1.33412],[103.77779,1.33037],[103.77748,1.32923],[103.77506,1.3256],[103.77274,1.32439],[103.77085,1.32133],[103.77085,1.3201],[103.77199,1.31503],[103.77219,1.31152],[103.77122,1.3065],[103.77117,1.30335],[103.77,1.3005],[103.76957,1.29514],[103.76906,1.2938],[103.76718,1.29137],[103.76278,1.29477],[103.75973,1.29766],[103.75603,1.29737],[103.75202,1.2963],[103.74934,1.29635],[103.74087,1.2988],[103.73213,1.30078],[103.72284,1.29947],[103.7114,1.29961],[103.7086,1.30209],[103.70065,1.30172],[103.69941,1.30098],[103.69943,1.29949],[103.69573,1.29962],[103.69275,1.30028],[103.68891,1.29995],[103.68388,1.29908],[103.68017,1.29721],[103.67857,1.30993],[103.67945,1.33017],[103.68653,1.32966],[103.68756,1.32995],[103.69639,1.34166],[103.70005,1.34456],[103.70352,1.34627]]]]}},{"type":"Feature","properties":{"id":"07","name":"07"},"geometry":{"type":"MultiPolygon","coordinates":[[[[103.73281,1.37911],[103.74289,1.38769],[103.74433,1.38864],[103.74686,1.3896],[103.74886,1.38975],[103.75481,1.38877],[103.75671,1.38885],[103.76434,1.3906],[103.77446,1.39078],[103.77588,1.37991],[103.77909,1.36834],[103.7806,1.36091],[103.78169,1.35897],[103.7838,1.3562],[103.78898,1.35262],[103.79026,1.3513],[103.79158,1.34927],[103.78974,1.34836],[103.78755,1.34481],[103.77952,1.34156],[103.7789,1.34093],[103.77684,1.33687],[103.77524,1.33563],[103.77174,1.3335],[103.76942,1.33259],[103.76741,1.33223],[103.76446,1.33269],[103.7435,1.34453],[103.73895,1.34527],[103.73719,1.34599],[103.73811,1.34817],[103.73822,1.34933],[103.73791,1.35086],[103.7365,1.35447],[103.73658,1.35576],[103.73699,1.35675],[103.74461,1.36557],[103.74856,1.36907],[103.74534,1.37177],[103.74323,1.37226],[103.73855,1.37401],[103.73678,1.37525],[103.73281,1.37911]]]]}},{"type":"Feature","properties":{"id":"06","name":"06"},"geometry":{"type":"MultiPolygon","coordinates":[[[[103.77446,1.39078],[103.76434,1.3906],[103.75671,1.38885],[103.75481,1.38877],[103.74886,1.38975],[103.74686,1.3896],[103.74433,1.38864],[103.74289,1.38769],[103.73281,1.37911],[103.73244,1.38028],[103.73244,1.3842],[103.73389,1.39129],[103.73361,1.39595],[103.73309,1.3981],[103.72978,1.40285],[103.72937,1.40423],[103.7263,1.40897],[103.72544,1.41077],[103.72553,1.41409],[103.72998,1.41524],[103.73604,1.42122],[103.7361,1.42358],[103.73827,1.42996],[103.73824,1.43368],[103.73759,1.43634],[103.73844,1.43812],[103.73854,1.43936],[103.73791,1.44225],[103.74347,1.4513],[103.74515,1.45028],[103.75906,1.44828],[103.76907,1.45247],[103.76987,1.44981],[103.76978,1.44916],[103.769,1.44783],[103.76738,1.44647],[103.76682,1.44496],[103.76802,1.44194],[103.76848,1.43912],[103.76886,1.43165],[103.77108,1.42492],[103.77159,1.41061],[103.77371,1.40062],[103.77446,1.39078]]]]}},{"type":"Feature","properties":{"id":"13S","name":"13S"},"geometry":{"type":"MultiPolygon","coordinates":[[[[103.78099,1.36019],[103.78318,1.36128],[103.78343,1.36199],[103.78323,1.36321],[103.78412,1.36515],[103.78493,1.3651],[103.78852,1.36636],[103.78936,1.36792],[103.79176,1.36955],[103.79995,1.36983],[103.80183,1.3696],[103.80443,1.37018],[103.80603,1.37509],[103.80836,1.37647],[103.81013,1.37689],[103.80941,1.37856],[103.80973,1.37936],[103.81311,1.38154],[103.81445,1.38154],[103.81652,1.37987],[103.82065,1.38057],[103.82143,1.37967],[103.82275,1.37969],[103.82384,1.37868],[103.82434,1.37877],[103.82493,1.37948],[103.8256,1.37974],[103.82702,1.37925],[103.82759,1.37864],[103.82777,1.37793],[103.82822,1.37783],[103.82835,1.37724],[103.82863,1.37154],[103.82802,1.36297],[103.82874,1.35986],[103.82876,1.35765],[103.83033,1.35589],[103.83302,1.35442],[103.83526,1.35242],[103.8361,1.35058],[103.83843,1.3471],[103.83818,1.34308],[103.83644,1.34194],[103.83729,1.33885],[103.83707,1.33533],[103.83904,1.3308],[103.8405,1.32886],[103.83813,1.32755],[103.8327,1.32583],[103.83197,1.32586],[103.82956,1.32688],[103.827,1.32659],[103.82585,1.32694],[103.82329,1.32911],[103.82032,1.33034],[103.81444,1.33347],[103.81227,1.33414],[103.81109,1.33491],[103.80499,1.34044],[103.79731,1.34829],[103.79599,1.349],[103.79418,1.34947],[103.79158,1.34927],[103.79026,1.3513],[103.78898,1.35262],[103.7838,1.3562],[103.78099,1.36019]]]]}},{"type":"Feature","properties":{"id":"13N","name":"13N"},"geometry":{"type":"MultiPolygon","coordinates":[[[[103.82822,1.37783],[103.82777,1.37793],[103.82729,1.37909],[103.82595,1.37974],[103.82522,1.37963],[103.82434,1.37877],[103.82384,1.37868],[103.82275,1.37969],[103.82143,1.37967],[103.82065,1.38057],[103.81652,1.37987],[103.81445,1.38154],[103.81311,1.38154],[103.80973,1.37936],[103.80941,1.37856],[103.81013,1.37689],[103.80836,1.37647],[103.80603,1.37509],[103.80443,1.37018],[103.80183,1.3696],[103.79995,1.36983],[103.79176,1.36955],[103.78936,1.36792],[103.78852,1.36636],[103.78493,1.3651],[103.78412,1.36515],[103.78323,1.36321],[103.78343,1.36199],[103.78318,1.36128],[103.78099,1.36019],[103.78015,1.36232],[103.77909,1.36834],[103.77588,1.37991],[103.77446,1.39078],[103.78083,1.39205],[103.79119,1.3968],[103.79489,1.39791],[103.79896,1.39675],[103.8001,1.39584],[103.80114,1.39561],[103.80258,1.39733],[103.80337,1.39731],[103.80461,1.39928],[103.80644,1.40073],[103.80893,1.40536],[103.81013,1.40505],[103.81177,1.40274],[103.81446,1.39671],[103.81598,1.39536],[103.81882,1.39432],[103.81795,1.39023],[103.81803,1.38897],[103.81954,1.38742],[103.82527,1.38363],[103.82728,1.38013],[103.82822,1.37783]]]]}},{"type":"Feature","properties":{"id":"10S","name":"10S"},"geometry":{"type":"MultiPolygon","coordinates":[[[[103.81882,1.39432],[103.81598,1.39536],[103.81446,1.39671],[103.81177,1.40274],[103.81013,1.40505],[103.80893,1.40536],[103.80644,1.40073],[103.80461,1.39928],[103.80337,1.39731],[103.80258,1.39733],[103.80114,1.39561],[103.8001,1.39584],[103.79896,1.39675],[103.79489,1.39791],[103.79119,1.3968],[103.78083,1.39205],[103.77446,1.39078],[103.77371,1.40062],[103.77159,1.41061],[103.77129,1.42151],[103.77471,1.4241],[103.77839,1.42584],[103.78138,1.42646],[103.78666,1.42626],[103.79051,1.42494],[103.79833,1.42074],[103.80325,1.41704],[103.80601,1.41455],[103.80989,1.41544],[103.81131,1.41521],[103.81507,1.41366],[103.81621,1.41359],[103.8204,1.41424],[103.82277,1.41365],[103.82303,1.41347],[103.82262,1.41181],[103.81936,1.40527],[103.81767,1.40281],[103.8172,1.40146],[103.81722,1.40032],[103.81865,1.39617],[103.81882,1.39432]]]]}},{"type":"Feature","properties":{"id":"10N","name":"10N"},"geometry":{"type":"MultiPolygon","coordinates":[[[[103.82303,1.41347],[103.82189,1.41405],[103.8204,1.41424],[103.81621,1.41359],[103.81507,1.41366],[103.81131,1.41521],[103.80989,1.41544],[103.80601,1.41455],[103.80325,1.41704],[103.79833,1.42074],[103.79051,1.42494],[103.78666,1.42626],[103.78138,1.42646],[103.77839,1.42584],[103.77471,1.4241],[103.77129,1.42151],[103.77108,1.42492],[103.76897,1.43124],[103.76864,1.433],[103.76848,1.43912],[103.76802,1.44194],[103.76682,1.44496],[103.76738,1.44647],[103.769,1.44783],[103.76978,1.44916],[103.76987,1.44981],[103.76907,1.45247],[103.78883,1.46503],[103.80201,1.47639],[103.81101,1.47836],[103.82051,1.47659],[103.83251,1.47289],[103.84136,1.4695],[103.83833,1.46248],[103.83747,1.46154],[103.83732,1.45928],[103.83616,1.45854],[103.8356,1.45689],[103.8342,1.4558],[103.83286,1.45388],[103.82715,1.44971],[103.82594,1.44718],[103.82364,1.445],[103.82395,1.44241],[103.8252,1.43942],[103.82558,1.43624],[103.8265,1.43337],[103.82685,1.42872],[103.82664,1.42745],[103.82566,1.42509],[103.82303,1.41347]]]]}},{"type":"Feature","properties":{"id":"12","name":"12"},"geometry":{"type":"MultiPolygon","coordinates":[[[[103.82822,1.37783],[103.83155,1.37999],[103.83534,1.38163],[103.8381,1.38494],[103.83997,1.38655],[103.84707,1.39158],[103.84945,1.39237],[103.85149,1.39245],[103.85811,1.39108],[103.85793,1.39415],[103.85716,1.39824],[103.85738,1.39957],[103.85831,1.40025],[103.86083,1.40081],[103.88279,1.40132],[103.88625,1.40116],[103.88535,1.39783],[103.88428,1.39546],[103.88179,1.39375],[103.8812,1.39289],[103.88149,1.3904],[103.88052,1.38827],[103.8803,1.38633],[103.8784,1.38509],[103.87688,1.38254],[103.87663,1.37892],[103.87703,1.37453],[103.87643,1.37008],[103.87549,1.36706],[103.87327,1.36228],[103.87411,1.3582],[103.87393,1.35662],[103.87285,1.35385],[103.8726,1.35174],[103.87388,1.34994],[103.8725,1.34823],[103.8707,1.34428],[103.8708,1.33943],[103.87041,1.33644],[103.86838,1.32809],[103.86173,1.33055],[103.85641,1.32907],[103.84719,1.32975],[103.8424,1.32954],[103.8405,1.32886],[103.83904,1.3308],[103.83707,1.33533],[103.83729,1.33885],[103.83644,1.34194],[103.83818,1.34308],[103.83843,1.3471],[103.8361,1.35058],[103.83526,1.35242],[103.83302,1.35442],[103.83033,1.35589],[103.82876,1.35765],[103.82874,1.35986],[103.82802,1.36297],[103.82863,1.37154],[103.82822,1.37783]]]]}},{"type":"Feature","properties":{"id":"11E","name":"11E"},"geometry":{"type":"MultiPolygon","coordinates":[[[[103.84175,1.38799],[103.84057,1.39013],[103.8342,1.39438],[103.83436,1.39491],[103.83698,1.39778],[103.83918,1.39767],[103.84024,1.39811],[103.84163,1.40113],[103.84163,1.40206],[103.84251,1.40269],[103.84745,1.40467],[103.85029,1.40698],[103.85104,1.40717],[103.85174,1.40797],[103.85162,1.40847],[103.8529,1.41017],[103.85605,1.41255],[103.85761,1.41337],[103.86214,1.42012],[103.86392,1.42369],[103.87007,1.42885],[103.88247,1.43756],[103.88448,1.43504],[103.89621,1.42786],[103.89991,1.42776],[103.89981,1.42521],[103.89785,1.41795],[103.89494,1.41151],[103.89054,1.40645],[103.8887,1.40551],[103.88716,1.40415],[103.88633,1.40251],[103.88625,1.40116],[103.87213,1.40109],[103.86083,1.40081],[103.8592,1.40055],[103.85765,1.39985],[103.85719,1.39901],[103.85811,1.39108],[103.85149,1.39245],[103.84945,1.39237],[103.84651,1.39129],[103.84175,1.38799]]]]}},{"type":"Feature","properties":{"id":"11W","name":"11W"},"geometry":{"type":"MultiPolygon","coordinates":[[[[103.88247,1.43756],[103.87007,1.42885],[103.86392,1.42369],[103.86214,1.42012],[103.85761,1.41337],[103.85605,1.41255],[103.8529,1.41017],[103.85162,1.40847],[103.85174,1.40797],[103.85104,1.40717],[103.85029,1.40698],[103.84745,1.40467],[103.84251,1.40269],[103.84163,1.40206],[103.84163,1.40113],[103.84024,1.39811],[103.83918,1.39767],[103.83698,1.39778],[103.83436,1.39491],[103.8342,1.39438],[103.84057,1.39013],[103.84175,1.38799],[103.8381,1.38494],[103.83534,1.38163],[103.83155,1.37999],[103.82822,1.37783],[103.82728,1.38013],[103.82527,1.38363],[103.81954,1.38742],[103.81803,1.38897],[103.81795,1.39023],[103.81866,1.39288],[103.81883,1.39472],[103.81852,1.39668],[103.81722,1.40032],[103.8172,1.40146],[103.81767,1.40281],[103.81936,1.40527],[103.82272,1.41208],[103.82566,1.42509],[103.8268,1.42806],[103.8265,1.43337],[103.82558,1.43624],[103.8252,1.43942],[103.82395,1.44241],[103.82364,1.445],[103.82594,1.44718],[103.82715,1.44971],[103.83286,1.45388],[103.8342,1.4558],[103.8356,1.45689],[103.83616,1.45854],[103.83732,1.45928],[103.83747,1.46154],[103.83833,1.46248],[103.84136,1.4695],[103.85035,1.46606],[103.85701,1.46284],[103.86651,1.45644],[103.87338,1.44888],[103.88247,1.43756]]]]}},{"type":"Feature","properties":{"id":"16S","name":"16S"},"geometry":{"type":"MultiPolygon","coordinates":[[[[103.88625,1.40116],[103.89578,1.39994],[103.89916,1.39901],[103.90157,1.39799],[103.90359,1.39686],[103.90653,1.39462],[103.9156,1.38436],[103.91912,1.38076],[103.92283,1.37875],[103.92809,1.37735],[103.9319,1.37576],[103.93065,1.37299],[103.93035,1.37145],[103.93081,1.36901],[103.93093,1.36612],[103.93075,1.35911],[103.92606,1.35026],[103.93004,1.3481],[103.93775,1.34478],[103.94079,1.34503],[103.9429,1.34634],[103.94693,1.34156],[103.94035,1.33601],[103.93862,1.33506],[103.93021,1.3355],[103.92573,1.33508],[103.92138,1.33335],[103.90907,1.32721],[103.9042,1.32571],[103.88989,1.32268],[103.88486,1.32215],[103.87899,1.31993],[103.87617,1.32009],[103.87451,1.32122],[103.87066,1.32627],[103.86838,1.32809],[103.87041,1.33644],[103.8708,1.33943],[103.8707,1.34428],[103.8725,1.34823],[103.87388,1.34994],[103.8726,1.35174],[103.87285,1.35385],[103.87393,1.35662],[103.87411,1.3582],[103.8733,1.36254],[103.87549,1.36706],[103.87643,1.37008],[103.87703,1.37453],[103.87663,1.37892],[103.87688,1.38254],[103.8784,1.38509],[103.8803,1.38633],[103.88052,1.38827],[103.88149,1.3904],[103.8812,1.39289],[103.88179,1.39375],[103.88428,1.39546],[103.88535,1.39783],[103.88625,1.40116]]]]}},{"type":"Feature","properties":{"id":"16N","name":"16N"},"geometry":{"type":"MultiPolygon","coordinates":[[[[103.9319,1.37576],[103.92809,1.37735],[103.92283,1.37875],[103.91912,1.38076],[103.9156,1.38436],[103.90653,1.39462],[103.90359,1.39686],[103.90157,1.39799],[103.89916,1.39901],[103.89578,1.39994],[103.88625,1.40116],[103.88633,1.40251],[103.88716,1.40415],[103.8887,1.40551],[103.89054,1.40645],[103.89494,1.41151],[103.89785,1.41795],[103.89981,1.42521],[103.89991,1.42776],[103.9111,1.42744],[103.91519,1.42658],[103.93967,1.40194],[103.94417,1.39827],[103.93514,1.38126],[103.93304,1.37815],[103.9319,1.37576]]]]}},{"type":"Feature","properties":{"id":"17","name":"17"},"geometry":{"type":"MultiPolygon","coordinates":[[[[103.91519,1.42658],[103.93175,1.43033],[103.93603,1.43038],[103.94086,1.42774],[103.95086,1.42528],[103.95588,1.42433],[103.959,1.42466],[103.96513,1.42208],[103.97075,1.42186],[103.97825,1.42433],[103.98191,1.42419],[103.9845,1.42483],[103.99125,1.42491],[103.99358,1.42361],[104.00123,1.42055],[104.0023,1.41732],[104.00218,1.4149],[104.00028,1.40835],[103.99675,1.40134],[103.9618,1.39428],[103.95422,1.39395],[103.95094,1.39456],[103.94727,1.39597],[103.94166,1.40014],[103.91519,1.42658]]]]}},{"type":"Feature","properties":{"id":"19N","name":"19N"},"geometry":{"type":"MultiPolygon","coordinates":[[[[104.00779,1.4265],[104.02163,1.43904],[104.03916,1.44379],[104.05578,1.43978],[104.06951,1.43454],[104.07478,1.43083],[104.08678,1.41749],[104.08806,1.41541],[104.09037,1.40792],[104.08506,1.40796],[104.08036,1.4073],[104.07709,1.40634],[104.07342,1.40466],[104.06942,1.40142],[104.05861,1.39733],[104.05512,1.39687],[104.05358,1.39711],[104.04663,1.3933],[104.04334,1.3945],[104.04057,1.39459],[104.03932,1.39518],[104.03778,1.39524],[104.03641,1.39994],[104.03399,1.40232],[104.02846,1.40376],[104.02594,1.40616],[104.02217,1.4078],[104.01186,1.40806],[104.00984,1.4102],[104.00799,1.41707],[104.00779,1.4265]]]]}},{"type":"Feature","properties":{"id":"19S","name":"19S"},"geometry":{"type":"MultiPolygon","coordinates":[[[[104.09037,1.40792],[104.09098,1.40586],[104.09135,1.39971],[104.09078,1.39416],[104.08786,1.38461],[104.08574,1.37892],[104.04526,1.36764],[104.03267,1.37754],[104.01919,1.38976],[104.01508,1.3985],[104.01162,1.40831],[104.01186,1.40806],[104.02217,1.4078],[104.02594,1.40616],[104.02846,1.40376],[104.03399,1.40232],[104.03641,1.39994],[104.03778,1.39524],[104.03932,1.39518],[104.04057,1.39459],[104.04334,1.3945],[104.04663,1.3933],[104.05358,1.39711],[104.05512,1.39687],[104.05861,1.39733],[104.06942,1.40142],[104.07342,1.40466],[104.07709,1.40634],[104.08036,1.4073],[104.08506,1.40796],[104.09037,1.40792]]]]}},{"type":"Feature","properties":{"id":"18E","name":"18E"},"geometry":{"type":"MultiPolygon","coordinates":[[[[104.05813,1.28576],[103.98893,1.27369],[103.97815,1.27783],[103.96187,1.28969],[103.95543,1.29917],[103.95423,1.30241],[103.9643,1.3039],[103.96971,1.30568],[103.97377,1.30839],[103.97552,1.31017],[103.97605,1.31247],[103.97637,1.31655],[103.97584,1.32588],[103.97363,1.32432],[103.9717,1.32431],[103.96644,1.32808],[103.96488,1.32883],[103.96731,1.33373],[103.97121,1.33963],[103.97146,1.34088],[103.97041,1.34198],[103.99675,1.40134],[104.01708,1.38945],[104.03217,1.37664],[104.04602,1.36387],[104.05825,1.35499],[104.05813,1.28576]]]]}},{"type":"Feature","properties":{"id":"1S","name":"1S"},"geometry":{"type":"MultiPolygon","coordinates":[[[[103.6012,1.22612],[103.6012,1.2641],[103.6053,1.27956],[103.64588,1.27883],[103.64719,1.27917],[103.64497,1.27355],[103.64491,1.26623],[103.64537,1.2615],[103.6471,1.25548],[103.65697,1.23581],[103.66022,1.22868],[103.66612,1.2213],[103.6764,1.20507],[103.64233,1.21003],[103.61445,1.21616],[103.60531,1.22056],[103.6012,1.22612]]]]}},{"type":"Feature","properties":{"id":"8S","name":"8S"},"geometry":{"type":"MultiPolygon","coordinates":[[[[103.6778,1.20449],[103.6764,1.20507],[103.66612,1.2213],[103.66022,1.22868],[103.65697,1.23581],[103.6471,1.25548],[103.64537,1.2615],[103.64491,1.26623],[103.64497,1.27355],[103.64719,1.27917],[103.65186,1.28038],[103.66657,1.28871],[103.67474,1.29553],[103.68019,1.29721],[103.68388,1.29908],[103.68891,1.29995],[103.69275,1.30028],[103.69573,1.29962],[103.69943,1.29949],[103.69941,1.30098],[103.70065,1.30172],[103.7086,1.30209],[103.7114,1.29961],[103.72284,1.29947],[103.73213,1.30078],[103.74087,1.2988],[103.74934,1.29635],[103.75202,1.2963],[103.75603,1.29737],[103.75973,1.29766],[103.76278,1.29477],[103.76718,1.29137],[103.75449,1.2718],[103.74925,1.26585],[103.72595,1.24562],[103.70534,1.23169],[103.70112,1.22942],[103.69258,1.22372],[103.68218,1.21179],[103.6778,1.20449]]]]}},{"type":"Feature","properties":{"id":"09","name":"09"},"geometry":{"type":"MultiPolygon","coordinates":[[[[103.72312,1.24371],[103.76887,1.24379],[103.81075,1.19877],[103.78632,1.18691],[103.74626,1.16493],[103.73702,1.1613],[103.72708,1.16152],[103.70354,1.19332],[103.69721,1.19647],[103.6778,1.20449],[103.68218,1.21179],[103.69258,1.22372],[103.70112,1.22942],[103.70534,1.23169],[103.72312,1.24371]]]]}},{"type":"Feature","properties":{"id":"18W","name":"18W"},"geometry":{"type":"MultiPolygon","coordinates":[[[[103.99675,1.40134],[103.97041,1.34198],[103.97146,1.34088],[103.97121,1.33963],[103.96731,1.33373],[103.96488,1.32883],[103.95661,1.33146],[103.955,1.3322],[103.9429,1.34634],[103.94079,1.34503],[103.93775,1.34478],[103.93004,1.3481],[103.92606,1.35026],[103.93075,1.35911],[103.93093,1.36612],[103.93081,1.36901],[103.93035,1.37145],[103.93065,1.37299],[103.93304,1.37815],[103.93514,1.38126],[103.94417,1.39827],[103.94727,1.39597],[103.95094,1.39456],[103.95422,1.39395],[103.9618,1.39428],[103.99675,1.40134]]]]}},{"type":"Feature","properties":{"id":"14","name":"14"},"geometry":{"type":"MultiPolygon","coordinates":[[[[103.87785,1.27008],[103.86019,1.25259],[103.83513,1.23519],[103.80933,1.24279],[103.78784,1.25119],[103.77512,1.25744],[103.75353,1.2707],[103.75449,1.2718],[103.76933,1.29433],[103.77,1.3005],[103.77117,1.30335],[103.77122,1.3065],[103.77222,1.31194],[103.77199,1.31503],[103.77085,1.3201],[103.77085,1.32133],[103.77274,1.32439],[103.77506,1.3256],[103.77748,1.32923],[103.77779,1.33037],[103.77791,1.33412],[103.77933,1.33884],[103.77929,1.33976],[103.77875,1.34063],[103.7789,1.34093],[103.78033,1.34194],[103.78755,1.34481],[103.78994,1.34854],[103.79179,1.34933],[103.79338,1.34952],[103.79599,1.349],[103.79787,1.3479],[103.80499,1.34044],[103.81169,1.33446],[103.81444,1.33347],[103.82032,1.33034],[103.82329,1.32911],[103.82651,1.32665],[103.82956,1.32688],[103.83197,1.32586],[103.8327,1.32583],[103.83813,1.32755],[103.84214,1.3295],[103.84719,1.32975],[103.85641,1.32907],[103.86173,1.33055],[103.86838,1.32809],[103.86807,1.32544],[103.86717,1.32361],[103.86723,1.3189],[103.86746,1.31794],[103.86907,1.31535],[103.86871,1.31248],[103.87,1.3105],[103.86937,1.30783],[103.86824,1.30655],[103.8682,1.30347],[103.86769,1.30173],[103.86508,1.29952],[103.86423,1.29794],[103.86417,1.29566],[103.8657,1.2847],[103.86743,1.28386],[103.87059,1.28163],[103.87785,1.27008]]]]}},{"type":"Feature","properties":{"id":"15","name":"15"},"geometry":{"type":"MultiPolygon","coordinates":[[[[103.95423,1.30241],[103.94493,1.30081],[103.89864,1.28339],[103.89494,1.28171],[103.89075,1.27935],[103.87785,1.27008],[103.87059,1.28163],[103.86743,1.28386],[103.8657,1.2847],[103.86408,1.29698],[103.86448,1.29867],[103.86508,1.29952],[103.86769,1.30173],[103.8682,1.30347],[103.86824,1.30655],[103.86937,1.30783],[103.87,1.3105],[103.86871,1.31248],[103.86907,1.31535],[103.86746,1.31794],[103.86723,1.3189],[103.86717,1.32361],[103.86807,1.32544],[103.86838,1.32809],[103.87066,1.32627],[103.87504,1.32071],[103.87708,1.31989],[103.87899,1.31993],[103.88446,1.32205],[103.88989,1.32268],[103.90252,1.3253],[103.9086,1.32701],[103.92138,1.33335],[103.92573,1.33508],[103.93021,1.3355],[103.93828,1.33498],[103.93909,1.3352],[103.94693,1.34156],[103.95407,1.33311],[103.95558,1.33183],[103.96364,1.32939],[103.96605,1.3283],[103.9717,1.32431],[103.97363,1.32432],[103.97584,1.32588],[103.97637,1.31655],[103.97605,1.31247],[103.97552,1.31017],[103.97377,1.30839],[103.96971,1.30568],[103.9643,1.3039],[103.95423,1.30241]]]]}}]}