{"type":"FeatureCollection","features":[{"type":"Feature","properties":{"kind":"land","source":"ne_10m_land.shp"},"geometry":{"type":"MultiPolygon","coordinates":[[[[101.512,3.807],[103.37917,3.807],[103.37843,3.80244],[103.36101,3.80199],[103.35108,3.78921],[103.34278,3.77192],[103.33872,3.75821],[103.33961,3.73835],[103.34498,3.72158],[103.38356,3.63727],[103.38722,3.62474],[103.40455,3.60004],[103.43873,3.56782],[103.46217,3.53413],[103.44801,3.50495],[103.48219,3.51179],[103.43336,3.40839],[103.42807,3.36717],[103.44451,3.24356],[103.45143,3.22378],[103.45607,3.20376],[103.43458,2.96182],[103.44117,2.92211],[103.47364,2.85102],[103.52019,2.78901],[103.63844,2.67211],[103.65211,2.666],[103.66749,2.66291],[103.68507,2.66205],[103.69044,2.65913],[103.70541,2.64545],[103.71616,2.64155],[103.72584,2.64305],[103.74969,2.65461],[103.76515,2.64891],[103.76677,2.64175],[103.76417,2.63325],[103.7671,2.62385],[103.80177,2.59687],[103.81398,2.58149],[103.83969,2.52485],[103.83107,2.5017],[103.83033,2.48237],[103.83766,2.46381],[103.91139,2.37067],[103.94899,2.33991],[103.95338,2.32941],[103.95362,2.30948],[103.95582,2.29829],[103.96241,2.2873],[103.97999,2.26557],[103.98365,2.25365],[103.98146,2.24433],[103.97169,2.2246],[103.96941,2.21271],[103.97641,2.19237],[104.02329,2.13447],[104.04884,2.07176],[104.06723,2.04682],[104.07887,2.0218],[104.08546,2.01097],[104.10646,1.98688],[104.1128,1.97614],[104.12086,1.95405],[104.12233,1.93464],[104.11964,1.89118],[104.12428,1.87055],[104.13543,1.84894],[104.14918,1.83747],[104.16114,1.84707],[104.16749,1.84707],[104.19532,1.79873],[104.20427,1.75288],[104.22291,1.72687],[104.22804,1.7121],[104.2295,1.67829],[104.23536,1.66437],[104.24724,1.65054],[104.25522,1.63776],[104.24985,1.62735],[104.25652,1.61384],[104.26368,1.57217],[104.28403,1.51748],[104.29371,1.47158],[104.29469,1.44652],[104.28785,1.43553],[104.27955,1.42646],[104.2824,1.38264],[104.27735,1.36734],[104.23959,1.36734],[104.23463,1.364],[104.22413,1.34951],[104.21925,1.34618],[104.17408,1.34821],[104.15447,1.35228],[104.11402,1.36848],[104.10621,1.37519],[104.10597,1.40449],[104.1006,1.41885],[104.08863,1.42943],[104.07488,1.43871],[104.06495,1.44864],[104.05942,1.48534],[104.08627,1.50288],[104.12322,1.51752],[104.14763,1.5454],[104.12892,1.54971],[104.11118,1.54507],[104.09449,1.53522],[104.0608,1.51008],[104.0534,1.50629],[104.04982,1.51309],[104.04396,1.5312],[104.01222,1.59687],[103.98854,1.63239],[103.96599,1.64785],[103.96022,1.63581],[103.97039,1.60863],[104.00831,1.54873],[104.00864,1.53486],[104.00343,1.5069],[104.01246,1.46426],[104.00978,1.44864],[103.97446,1.41983],[103.92652,1.43171],[103.83969,1.47655],[103.8143,1.47451],[103.7741,1.45368],[103.7531,1.44864],[103.71266,1.45209],[103.6976,1.45063],[103.68141,1.4418],[103.63006,1.37743],[103.60011,1.35346],[103.56471,1.35985],[103.55551,1.37474],[103.54786,1.38207],[103.5442,1.37718],[103.54526,1.36595],[103.55006,1.35106],[103.55104,1.34284],[103.54851,1.33169],[103.53053,1.30524],[103.51637,1.27045],[103.50408,1.28994],[103.469,1.31997],[103.45484,1.33942],[103.4463,1.35932],[103.41391,1.46784],[103.39536,1.50642],[103.36736,1.5384],[103.32504,1.56533],[103.20607,1.61042],[103.03712,1.71552],[102.99635,1.73493],[102.97413,1.74116],[102.95118,1.74339],[102.93458,1.74754],[102.92319,1.75788],[102.90675,1.78437],[102.88746,1.80711],[102.86362,1.82779],[102.83562,1.84565],[102.80445,1.86009],[102.78842,1.85419],[102.73878,1.84663],[102.72185,1.84707],[102.69939,1.85944],[102.68621,1.87906],[102.66717,1.92158],[102.65065,1.9409],[102.56886,2.00642],[102.55763,2.01874],[102.55047,2.03144],[102.55909,2.03319],[102.56031,2.03644],[102.5573,2.04511],[102.54469,2.05768],[102.52687,2.07087],[102.48902,2.09292],[102.188,2.21638],[102.15431,2.23566],[102.12696,2.25731],[102.05128,2.34089],[102.04029,2.34614],[102.01873,2.35041],[101.99903,2.36164],[101.98707,2.37714],[101.98878,2.39452],[101.97218,2.39859],[101.95623,2.40477],[101.92677,2.42243],[101.90919,2.41079],[101.87745,2.40884],[101.86524,2.39452],[101.85816,2.41942],[101.85621,2.45136],[101.85108,2.47895],[101.8274,2.49413],[101.81772,2.50218],[101.80323,2.51801],[101.78305,2.57587],[101.77442,2.58657],[101.761,2.59211],[101.71339,2.59658],[101.70094,2.60415],[101.69093,2.61489],[101.67351,2.62726],[101.61834,2.63691],[101.59791,2.64631],[101.56422,2.652],[101.54233,2.66128],[101.512,2.68284],[101.512,3.807]]],[[[101.512,-1.105],[101.512,1.67476],[101.52963,1.6708],[101.56739,1.65591],[101.59156,1.65469],[101.67351,1.6695],[101.71168,1.67113],[101.7492,1.66153],[101.77858,1.64427],[102.02149,1.43789],[102.11817,1.38654],[102.14332,1.35773],[102.15333,1.31147],[102.14698,1.27314],[102.14723,1.24779],[102.15675,1.23631],[102.17311,1.2309],[102.18727,1.21727],[102.19728,1.19961],[102.20102,1.18171],[102.19313,1.10423],[102.19418,1.0659],[102.20851,1.02407],[102.24008,0.98208],[102.32106,0.91718],[102.42506,0.80427],[102.46388,0.77412],[102.50953,0.75031],[102.53224,0.74238],[102.55193,0.7381],[102.59498,0.73603],[102.61638,0.73827],[102.64796,0.74811],[102.66717,0.75031],[102.78126,0.7309],[102.87713,0.72639],[102.91814,0.70767],[102.95379,0.67585],[103.05633,0.55829],[103.08375,0.51557],[103.0923,0.46918],[103.07472,0.44233],[103.03728,0.42064],[102.96144,0.38719],[102.92123,0.35737],[102.8991,0.34418],[102.8615,0.33576],[102.74627,0.27766],[102.73243,0.26651],[102.71567,0.25764],[102.64601,0.24262],[102.6277,0.23432],[102.61988,0.22948],[102.61199,0.22215],[102.59181,0.18627],[102.58188,0.1811],[102.55494,0.18643],[102.53663,0.19977],[102.5027,0.2364],[102.48585,0.24274],[102.45997,0.2475],[102.43727,0.24917],[102.43043,0.24632],[102.43963,0.23924],[102.44939,0.23648],[102.47202,0.2364],[102.48072,0.23428],[102.51783,0.19257],[102.54575,0.16913],[102.57789,0.15851],[102.61199,0.17365],[102.63307,0.20165],[102.64438,0.20954],[102.66774,0.21918],[102.67774,0.22557],[102.69549,0.23208],[102.74155,0.22663],[102.76344,0.22895],[102.81821,0.25373],[102.88592,0.26142],[102.90268,0.26777],[102.97291,0.31314],[102.99244,0.3183],[103.00758,0.32465],[103.05763,0.37295],[103.07594,0.383],[103.09889,0.39179],[103.12257,0.39794],[103.14357,0.40021],[103.16627,0.4079],[103.18133,0.42642],[103.20151,0.46918],[103.22364,0.48843],[103.28012,0.4986],[103.30812,0.51317],[103.33579,0.53168],[103.36215,0.53628],[103.3899,0.53002],[103.42123,0.5163],[103.48097,0.48233],[103.54103,0.43464],[103.58766,0.37653],[103.60629,0.31086],[103.61752,0.33027],[103.62501,0.33983],[103.63429,0.34565],[103.64527,0.34528],[103.66489,0.3347],[103.6902,0.326],[103.71119,0.31147],[103.73048,0.29344],[103.74342,0.27733],[103.76002,0.23949],[103.80047,0.03457],[103.80836,0.0235],[103.81398,0.01887],[103.81129,0.00853],[103.80177,-0.00726],[103.79151,-0.01255],[103.77833,-0.01312],[103.75652,-0.01067],[103.67115,-0.01743],[103.66375,-0.02174],[103.66424,-0.04054],[103.65748,-0.04473],[103.62916,-0.04839],[103.61988,-0.04473],[103.61183,-0.03688],[103.60076,-0.0169],[103.59205,-0.01067],[103.577,-0.01397],[103.5687,-0.01857],[103.56471,-0.02427],[103.56691,-0.03521],[103.58082,-0.03777],[103.58579,-0.04473],[103.57814,-0.07403],[103.58717,-0.09498],[103.57586,-0.10442],[103.55828,-0.11077],[103.5442,-0.1137],[103.50799,-0.11443],[103.4944,-0.11842],[103.48902,-0.13079],[103.48308,-0.15944],[103.46681,-0.18304],[103.44304,-0.20208],[103.41456,-0.21673],[103.30144,-0.23756],[103.27052,-0.25758],[103.28712,-0.25775],[103.31666,-0.26287],[103.33253,-0.26385],[103.34986,-0.26019],[103.38063,-0.247],[103.39715,-0.24407],[103.42482,-0.23496],[103.45932,-0.21844],[103.48927,-0.21152],[103.5027,-0.2304],[103.49464,-0.25359],[103.45672,-0.289],[103.44801,-0.31536],[103.43678,-0.33799],[103.40952,-0.3497],[103.34555,-0.36004],[103.34555,-0.36688],[103.37941,-0.3803],[103.40056,-0.38454],[103.41798,-0.37754],[103.42954,-0.37493],[103.48219,-0.37371],[103.49301,-0.37542],[103.5027,-0.37851],[103.51149,-0.38356],[103.52003,-0.39121],[103.53053,-0.39715],[103.5525,-0.4],[103.59051,-0.42457],[103.5984,-0.43678],[103.59205,-0.45631],[103.57325,-0.47536],[103.54705,-0.48984],[103.5158,-0.49961],[103.41798,-0.51775],[103.40162,-0.50954],[103.39015,-0.49041],[103.37289,-0.4494],[103.38038,-0.51434],[103.38478,-0.52288],[103.4065,-0.54079],[103.41456,-0.55185],[103.41627,-0.57537],[103.40854,-0.60491],[103.39357,-0.63201],[103.37289,-0.64813],[103.37289,-0.65488],[103.38893,-0.66595],[103.38575,-0.68092],[103.3694,-0.69329],[103.34555,-0.6959],[103.35646,-0.71136],[103.37599,-0.72682],[103.39991,-0.73886],[103.43605,-0.74529],[103.45069,-0.7501],[103.46315,-0.75775],[103.46852,-0.76784],[103.46485,-0.78297],[103.44752,-0.79941],[103.44117,-0.8126],[103.48536,-0.80495],[103.50733,-0.80495],[103.52711,-0.81601],[103.53761,-0.83034],[103.5525,-0.8611],[103.56471,-0.87461],[103.5691,-0.87566],[103.58107,-0.87379],[103.58579,-0.87461],[103.59205,-0.88763],[103.60475,-0.90358],[103.61264,-0.91155],[103.63445,-0.91937],[103.64064,-0.92889],[103.64479,-0.93857],[103.6504,-0.94297],[103.68873,-0.94915],[103.70289,-0.96006],[103.72511,-0.98561],[103.73976,-0.99066],[103.76205,-0.99277],[103.78004,-0.99879],[103.79412,-1.00945],[103.80494,-1.02483],[103.82081,-1.06308],[103.82887,-1.07342],[103.83912,-1.03281],[103.85629,-1.01377],[103.87859,-0.99928],[103.9004,-0.99066],[103.94239,-0.98203],[103.95582,-0.97698],[104.02231,-1.00823],[104.04078,-1.02174],[104.0569,-1.02752],[104.10792,-1.02899],[104.12696,-1.03167],[104.18946,-1.06813],[104.21241,-1.07334],[104.25367,-1.05584],[104.26271,-1.05055],[104.31959,-1.03362],[104.37721,-1.03167],[104.38185,-1.04079],[104.40285,-1.105],[101.512,-1.105]]],[[[103.81861,0.88622],[103.86329,0.8769],[103.8982,0.85334],[103.92416,0.82246],[103.94215,0.79133],[103.94142,0.7757],[103.93287,0.77033],[103.9214,0.77277],[103.91139,0.78075],[103.89503,0.81025],[103.88746,0.81802],[103.85174,0.83535],[103.84596,0.84247],[103.8423,0.85065],[103.81861,0.88007],[103.81861,0.88622]]],[[[103.94215,0.99608],[103.952,0.98794],[103.96144,0.9748],[103.9673,0.96011],[103.96664,0.94721],[103.95883,0.93976],[103.9463,0.93561],[103.93279,0.93403],[103.92164,0.93464],[103.91139,0.93793],[103.85662,0.96841],[103.84645,0.97748],[103.83969,0.98994],[103.83888,1.003],[103.84474,1.01268],[103.85662,1.01439],[103.87379,1.00361],[103.87371,1.01191],[103.88006,1.03148],[103.89283,1.01435],[103.90903,1.00593],[103.94215,0.99608]]],[[[106.27084,3.36099],[106.292,3.36815],[106.29737,3.3583],[106.292,3.31656],[106.29396,3.28107],[106.292,3.27155],[106.28566,3.26386],[106.28159,3.26752],[106.27906,3.28897],[106.2767,3.29239],[106.27174,3.29352],[106.26686,3.29239],[106.26466,3.28897],[106.26547,3.28181],[106.27516,3.25422],[106.28028,3.2475],[106.28289,3.24087],[106.27906,3.23062],[106.23048,3.25796],[106.23536,3.26264],[106.23683,3.26854],[106.23683,3.28522],[106.24676,3.30634],[106.24977,3.32665],[106.25489,3.34516],[106.27084,3.36099]]],[[[104.49708,0.07128],[104.4795,0.06395],[104.46957,0.06379],[104.47999,0.04511],[104.48308,0.03571],[104.48341,0.0235],[104.47657,0.0235],[104.45916,0.04731],[104.41139,0.0917],[104.40138,0.11909],[104.40756,0.11909],[104.41603,0.11172],[104.42872,0.10611],[104.42359,0.11221],[104.4087,0.15095],[104.40675,0.1612],[104.40789,0.1706],[104.41391,0.17585],[104.42115,0.17276],[104.4284,0.16376],[104.43963,0.14619],[104.49008,0.08259],[104.49708,0.07128]]],[[[104.28403,0.70816],[104.27442,0.70344],[104.26482,0.70222],[104.25538,0.7049],[104.23609,0.71845],[104.21453,0.72118],[104.20558,0.72606],[104.19166,0.746],[104.18824,0.76447],[104.19581,0.77997],[104.21583,0.79133],[104.2339,0.78644],[104.24488,0.78653],[104.24985,0.79475],[104.25416,0.79784],[104.26368,0.79914],[104.27296,0.79654],[104.27735,0.78791],[104.2776,0.76431],[104.2798,0.74706],[104.2859,0.73037],[104.2977,0.70816],[104.28403,0.70816]]],[[[103.29363,0.62543],[103.29786,0.60472],[103.29998,0.57543],[103.29575,0.54938],[103.28077,0.53803],[103.19557,0.52045],[103.18336,0.51484],[103.17066,0.51374],[103.15317,0.52383],[103.14047,0.53937],[103.136,0.55622],[103.13673,0.57388],[103.15895,0.66478],[103.17921,0.6955],[103.21176,0.70816],[103.23024,0.70417],[103.24692,0.69404],[103.26149,0.68032],[103.2732,0.66568],[103.28517,0.64639],[103.29363,0.62543]]],[[[103.48902,0.77704],[103.50196,0.76337],[103.50685,0.75544],[103.51002,0.74287],[103.48032,0.68525],[103.45948,0.65811],[103.43434,0.64728],[103.4157,0.65738],[103.40309,0.67821],[103.39373,0.6988],[103.3838,0.70816],[103.34555,0.76337],[103.34051,0.784],[103.33872,0.80492],[103.34116,0.81737],[103.35035,0.83918],[103.35743,0.87246],[103.36988,0.88605],[103.38551,0.88886],[103.40089,0.88007],[103.41,0.86457],[103.41749,0.8465],[103.42758,0.83161],[103.45973,0.82038],[103.47047,0.80793],[103.48902,0.77704]]],[[[103.44313,1.01276],[103.44483,1.00031],[103.44223,0.99527],[103.43702,0.9914],[103.42359,0.99018],[103.40756,0.99494],[103.38038,1.00983],[103.35768,1.00446],[103.34083,1.01952],[103.31479,1.06159],[103.3156,1.07319],[103.3235,1.09276],[103.33383,1.1114],[103.34213,1.1197],[103.36647,1.13117],[103.37672,1.13329],[103.38982,1.13028],[103.39137,1.12246],[103.38819,1.11172],[103.38722,1.0998],[103.39308,1.07608],[103.3978,1.06415],[103.40398,1.05484],[103.40968,1.05117],[103.4227,1.04971],[103.4284,1.04719],[103.43141,1.04271],[103.4319,1.02839],[103.44313,1.01276]]],[[[104.14633,1.16047],[104.15235,1.14004],[104.1517,1.11945],[104.13111,1.04877],[104.12322,1.04963],[104.10597,1.06501],[104.10418,1.05166],[104.1067,1.04548],[104.1128,1.03775],[104.1045,1.03327],[104.0923,1.00983],[104.09156,1.00556],[104.09327,0.99364],[104.0923,0.98994],[104.0879,0.98896],[104.07179,0.98994],[104.04916,0.9842],[104.03175,0.98945],[103.9961,1.00983],[103.98797,1.01048],[103.96664,1.00812],[103.95582,1.00983],[103.95053,1.01411],[103.91822,1.05134],[103.90675,1.07168],[103.9026,1.09052],[103.91407,1.0998],[103.92384,1.09614],[103.93816,1.07958],[103.94899,1.0786],[103.95623,1.08487],[103.95533,1.09357],[103.95135,1.10358],[103.94654,1.1247],[103.94321,1.13093],[103.94451,1.13524],[103.95582,1.14077],[103.96705,1.14167],[103.98764,1.13422],[103.9961,1.13329],[104.01108,1.14472],[104.01922,1.17886],[104.03094,1.18789],[104.04135,1.18138],[104.07081,1.14594],[104.08546,1.13329],[104.09164,1.14549],[104.09156,1.15843],[104.0866,1.17097],[104.07862,1.18171],[104.09059,1.18781],[104.1032,1.18952],[104.11573,1.18724],[104.1277,1.1813],[104.13819,1.17202],[104.14633,1.16047]]],[[[104.22267,2.78559],[104.22511,2.73591],[104.22267,2.72411],[104.21079,2.71507],[104.19207,2.70905],[104.17213,2.70775],[104.15748,2.71328],[104.13844,2.73363],[104.13063,2.74579],[104.13071,2.76008],[104.12582,2.77704],[104.12696,2.78559],[104.1316,2.79108],[104.15065,2.80239],[104.16033,2.81786],[104.16033,2.83267],[104.15626,2.84772],[104.15382,2.86408],[104.15602,2.87458],[104.16188,2.88483],[104.17066,2.8911],[104.18141,2.8898],[104.18621,2.88532],[104.18898,2.86758],[104.19166,2.8603],[104.20436,2.84089],[104.21062,2.82787],[104.22267,2.78559]]],[[[105.80201,2.99726],[105.81349,2.99604],[105.844,2.98847],[105.85328,2.98355],[105.84693,2.96992],[105.83961,2.96992],[105.83961,2.97736],[105.83334,2.97736],[105.81186,2.90449],[105.80201,2.89818],[105.78891,2.90717],[105.78142,2.90497],[105.77556,2.8985],[105.72975,2.88117],[105.73406,2.87328],[105.73894,2.86929],[105.75416,2.8675],[105.76222,2.8642],[105.76515,2.85692],[105.76441,2.84968],[105.761,2.84638],[105.72446,2.83967],[105.71266,2.84317],[105.70484,2.85098],[105.69947,2.86164],[105.69646,2.87348],[105.69557,2.88459],[105.6976,2.89647],[105.70688,2.9208],[105.71168,2.94367],[105.72218,2.96922],[105.72348,2.97736],[105.71534,2.989],[105.69117,3.00235],[105.6819,3.01146],[105.69191,3.02049],[105.69557,3.03417],[105.6941,3.04857],[105.68873,3.05996],[105.70289,3.06611],[105.7103,3.04849],[105.7129,3.04564],[105.73707,3.03197],[105.73943,3.01512],[105.73683,2.99958],[105.73854,2.9881],[105.77817,2.97761],[105.78492,2.97736],[105.79029,2.98159],[105.79461,2.99453],[105.80201,2.99726]]],[[[106.28517,3.1791],[106.28517,3.08723],[106.27906,3.08723],[106.25782,3.11392],[106.24187,3.10786],[106.2339,3.11522],[106.22608,3.12556],[106.2107,3.12816],[106.2151,3.13483],[106.21697,3.15493],[106.20582,3.20572],[106.20777,3.22533],[106.22381,3.22378],[106.23854,3.22651],[106.25913,3.21475],[106.27735,3.19623],[106.28517,3.1791]]],[[[103.71274,-0.26971],[103.73463,-0.28118],[103.75611,-0.3012],[103.76686,-0.32464],[103.75652,-0.34645],[103.74936,-0.34881],[103.71241,-0.34645],[103.69825,-0.34954],[103.67066,-0.3637],[103.64967,-0.37005],[103.62623,-0.38421],[103.61256,-0.38738],[103.59262,-0.37615],[103.58033,-0.372],[103.56813,-0.37754],[103.54664,-0.38299],[103.49,-0.36159],[103.46168,-0.36688],[103.46062,-0.33392],[103.48512,-0.2868],[103.52215,-0.24383],[103.55787,-0.2234],[103.57455,-0.2247],[103.62867,-0.23431],[103.64039,-0.24066],[103.64959,-0.25482],[103.67066,-0.26263],[103.71274,-0.26971]]],[[[104.68873,0.07128],[104.70786,0.04365],[104.70289,0.03278],[104.68393,0.03628],[104.6609,0.05142],[104.6399,0.07005],[104.63356,0.07811],[104.62615,0.10224],[104.6198,0.10578],[104.60621,0.09178],[104.59523,0.10163],[104.57887,0.1249],[104.56837,0.13679],[104.56577,0.14273],[104.56422,0.15815],[104.56153,0.16128],[104.54672,0.1625],[104.5407,0.16523],[104.53419,0.1706],[104.5298,0.17731],[104.52735,0.18989],[104.52491,0.19546],[104.49855,0.22329],[104.49366,0.23115],[104.49024,0.24262],[104.50221,0.23827],[104.51197,0.2329],[104.5311,0.21597],[104.53053,0.21906],[104.5324,0.22289],[104.53883,0.22826],[104.54322,0.22744],[104.54811,0.22431],[104.68873,0.07128]]],[[[104.22608,0.88007],[104.24147,0.87702],[104.25782,0.8686],[104.26629,0.85586],[104.2575,0.83967],[104.25025,0.83002],[104.23951,0.82246],[104.18751,0.79926],[104.17644,0.79849],[104.16749,0.80492],[104.16114,0.81879],[104.15602,0.84638],[104.14763,0.85895],[104.13413,0.86725],[104.10719,0.87299],[104.0923,0.88007],[104.09938,0.89476],[104.094,0.93309],[104.09913,0.94892],[104.11256,0.95258],[104.1277,0.94253],[104.15748,0.91079],[104.16293,0.90192],[104.16635,0.89179],[104.17213,0.88349],[104.18483,0.88007],[104.22608,0.88007]]],[[[104.47999,-0.27125],[104.4878,-0.2741],[104.49366,-0.28118],[104.49708,-0.28997],[104.49708,-0.2986],[104.49252,-0.30877],[104.4865,-0.31072],[104.47885,-0.30999],[104.46957,-0.31227],[104.45623,-0.31862],[104.44614,-0.32008],[104.41822,-0.31854],[104.4065,-0.31178],[104.40089,-0.2973],[104.40496,-0.28338],[104.42123,-0.27809],[104.47999,-0.27125]]],[[[102.83912,0.29096],[102.8545,0.30317],[102.88453,0.31525],[102.91391,0.32026],[102.92726,0.31086],[102.90773,0.29853],[102.87534,0.28408],[102.84702,0.27806],[102.83912,0.29096]]],[[[103.0796,0.62442],[103.08432,0.60855],[103.08497,0.59203],[103.08139,0.57929],[103.077,0.57477],[103.07146,0.57722],[103.06446,0.58519],[103.05787,0.59638],[103.04566,0.62783],[103.0433,0.64045],[103.03728,0.65266],[103.03663,0.65754],[103.0433,0.66096],[103.05543,0.65868],[103.06577,0.64924],[103.07399,0.63646],[103.0796,0.62442]]],[[[103.50636,0.70189],[103.51743,0.69843],[103.52182,0.68985],[103.52133,0.67866],[103.51791,0.66763],[103.50611,0.64077],[103.49789,0.62702],[103.48902,0.61994],[103.47202,0.62299],[103.46925,0.6374],[103.47389,0.65347],[103.47901,0.66096],[103.48585,0.66739],[103.49952,0.6955],[103.50636,0.70189]]],[[[103.1128,0.79295],[103.12094,0.77997],[103.11622,0.75776],[103.1045,0.73542],[103.0923,0.72236],[103.08627,0.72468],[103.08082,0.73428],[103.07586,0.75283],[103.07716,0.76089],[103.08473,0.7757],[103.09457,0.78604],[103.10662,0.79295],[103.1128,0.79295]]],[[[104.56463,0.79816],[104.60564,0.79389],[104.62159,0.78742],[104.62045,0.77704],[104.61354,0.76586],[104.6019,0.76435],[104.57203,0.77082],[104.55397,0.7707],[104.54103,0.76659],[104.51124,0.75031],[104.51189,0.77375],[104.52345,0.7884],[104.54233,0.79588],[104.56463,0.79816]]],[[[103.66774,0.83967],[103.70265,0.81415],[103.71811,0.79808],[103.72731,0.77985],[103.72486,0.76651],[103.71339,0.76244],[103.70094,0.76569],[103.69508,0.77391],[103.68881,0.79165],[103.66651,0.82364],[103.66774,0.83967]]],[[[103.46217,0.91893],[103.47267,0.90884],[103.4795,0.89362],[103.47934,0.87885],[103.469,0.86961],[103.45826,0.8697],[103.44467,0.8736],[103.43295,0.88068],[103.42807,0.89004],[103.42156,0.89671],[103.41041,0.90473],[103.40707,0.91144],[103.45346,0.92056],[103.46217,0.91893]]],[[[103.51873,0.81843],[103.5232,0.80793],[103.52442,0.79849],[103.52345,0.77782],[103.49049,0.82128],[103.47592,0.83222],[103.44028,0.84422],[103.42579,0.8544],[103.42123,0.87324],[103.43084,0.86766],[103.48854,0.84545],[103.50554,0.83397],[103.51873,0.81843]]],[[[104.79859,1.03148],[104.81105,1.02562],[104.83009,1.02338],[104.84352,1.01822],[104.83904,1.00361],[104.84555,0.99779],[104.84995,0.9912],[104.85231,0.98371],[104.85279,0.97549],[104.84539,0.96332],[104.83277,0.95515],[104.8283,0.96499],[104.82635,0.97663],[104.82594,0.99299],[104.82179,0.99872],[104.79119,1.02407],[104.79859,1.03148]]],[[[106.24317,2.76048],[106.24342,2.74543],[106.24155,2.73802],[106.2378,2.73286],[106.21949,2.75837],[106.21266,2.78148],[106.20436,2.79613],[106.19899,2.80952],[106.2033,2.81908],[106.21632,2.82246],[106.22625,2.81704],[106.23316,2.8063],[106.2378,2.79377],[106.24317,2.76048]]],[[[104.40553,0.33881],[104.41619,0.3288],[104.4214,0.31794],[104.42018,0.3063],[104.41139,0.29442],[104.40512,0.29214],[104.39959,0.29499],[104.39552,0.30093],[104.39186,0.3166],[104.38689,0.31928],[104.38022,0.32038],[104.37355,0.32453],[104.34693,0.35993],[104.33937,0.36546],[104.35182,0.37124],[104.35816,0.36888],[104.37623,0.35432],[104.40553,0.33881]]],[[[104.21583,0.70816],[104.24147,0.69538],[104.27052,0.67503],[104.28761,0.65078],[104.27735,0.62617],[104.26645,0.633],[104.26026,0.64338],[104.24985,0.66718],[104.22202,0.69603],[104.21583,0.70816]]],[[[104.72486,0.74966],[104.74098,0.74893],[104.75416,0.73725],[104.74903,0.7226],[104.73927,0.71625],[104.73146,0.72248],[104.72071,0.73786],[104.72486,0.74966]]],[[[104.65943,0.84589],[104.66326,0.82909],[104.66139,0.82014],[104.65659,0.81387],[104.65154,0.80996],[104.64283,0.80683],[104.63038,0.80655],[104.6255,0.8107],[104.63022,0.81635],[104.63543,0.82856],[104.63917,0.84797],[104.64861,0.8579],[104.65943,0.84589]]],[[[103.80177,0.85273],[103.81707,0.8417],[103.83107,0.81635],[103.83953,0.7884],[103.83766,0.76952],[103.83229,0.76537],[103.82667,0.76569],[103.80128,0.78425],[103.76393,0.80492],[103.74635,0.82274],[103.73048,0.84756],[103.72625,0.87324],[103.74342,0.89374],[103.75025,0.88886],[103.76775,0.88434],[103.7776,0.88007],[103.80177,0.85273]]],[[[103.12648,0.92788],[103.16326,0.8996],[103.17457,0.88215],[103.16749,0.85895],[103.12713,0.83442],[103.08627,0.84101],[102.95151,0.92463],[102.95118,0.92788],[102.90675,0.96882],[102.89332,0.97533],[102.8589,0.9877],[102.8423,0.98994],[102.82439,0.99543],[102.81153,1.00804],[102.80104,1.02196],[102.7907,1.03148],[102.77361,1.03547],[102.71192,1.03148],[102.69264,1.02582],[102.67058,1.01455],[102.64763,1.00629],[102.62623,1.00983],[102.62477,1.02196],[102.63722,1.041],[102.67058,1.07559],[102.68523,1.0954],[102.70191,1.13776],[102.71559,1.15445],[102.75538,1.16791],[102.80177,1.16328],[102.88624,1.13329],[102.96713,1.09154],[103.03712,1.04458],[103.07765,1.0034],[103.12648,0.92788]]],[[[104.65455,1.09638],[104.65642,1.08039],[104.66749,1.03059],[104.65162,1.00902],[104.64715,0.99689],[104.65398,0.97687],[104.6548,0.9477],[104.65773,0.94147],[104.66163,0.93724],[104.6587,0.92788],[104.64991,0.91844],[104.63697,0.91421],[104.62355,0.91218],[104.61638,0.9062],[104.61354,0.89643],[104.61305,0.88312],[104.59986,0.83503],[104.56707,0.82954],[104.48341,0.85895],[104.48927,0.87515],[104.48373,0.8933],[104.46949,0.90811],[104.44923,0.91421],[104.44923,0.92162],[104.4734,0.9206],[104.48463,0.92219],[104.49024,0.92788],[104.48658,0.93708],[104.47486,0.94009],[104.44923,0.94147],[104.42897,0.94892],[104.42107,0.95661],[104.42123,0.96882],[104.42758,0.9748],[104.46274,0.9831],[104.45802,0.99372],[104.45737,1.00194],[104.46274,1.01728],[104.46827,1.01805],[104.47967,1.02534],[104.4852,1.03368],[104.47299,1.03775],[104.46778,1.04092],[104.45777,1.055],[104.45248,1.05817],[104.43873,1.05687],[104.42994,1.05362],[104.38624,1.02985],[104.37143,1.02562],[104.34946,1.02407],[104.34059,1.0209],[104.32716,1.00678],[104.31544,1.00361],[104.2815,1.00214],[104.27101,1.00361],[104.24562,1.01728],[104.24138,1.03555],[104.24244,1.05589],[104.23276,1.07559],[104.23194,1.09333],[104.25636,1.10887],[104.30519,1.12645],[104.31658,1.13288],[104.32228,1.13866],[104.33253,1.15445],[104.33676,1.16503],[104.33725,1.17373],[104.34132,1.17959],[104.35629,1.18171],[104.37843,1.1765],[104.38933,1.17866],[104.39389,1.1916],[104.39967,1.20262],[104.41261,1.20063],[104.43556,1.18789],[104.47608,1.17829],[104.50815,1.17951],[104.5381,1.19025],[104.57203,1.20905],[104.56804,1.22016],[104.57569,1.22541],[104.58692,1.21992],[104.59254,1.1988],[104.58692,1.16205],[104.58823,1.1446],[104.59938,1.12645],[104.64715,1.10497],[104.65455,1.09638]]],[[[102.4734,1.24201],[102.4795,1.21914],[102.47608,1.19453],[102.44744,1.10049],[102.44557,1.07616],[102.44744,1.05134],[102.46518,0.99482],[102.46803,0.97256],[102.46485,0.96345],[102.44703,0.96296],[102.43751,0.95889],[102.40748,0.93285],[102.39967,0.92788],[102.36931,0.93521],[102.33375,0.96369],[102.2671,1.03685],[102.25131,1.0668],[102.23927,1.0821],[102.23292,1.09951],[102.23422,1.12421],[102.24269,1.16743],[102.24513,1.20392],[102.24187,1.22187],[102.22291,1.23802],[102.21258,1.258],[102.20411,1.28083],[102.20102,1.29776],[102.20346,1.30655],[102.21266,1.32543],[102.21461,1.33564],[102.20851,1.37718],[102.21062,1.39826],[102.21746,1.40917],[102.23121,1.41323],[102.25294,1.4138],[102.29086,1.40453],[102.32211,1.3815],[102.37574,1.32225],[102.45143,1.26728],[102.46705,1.25121],[102.4734,1.24201]]],[[[103.96079,1.3911],[103.98569,1.38544],[103.99952,1.38032],[104.00343,1.37417],[103.99187,1.35493],[103.97486,1.33446],[103.95436,1.3181],[103.9319,1.31147],[103.90724,1.30874],[103.88771,1.30126],[103.85271,1.27729],[103.84409,1.2685],[103.83888,1.26626],[103.82602,1.26431],[103.80161,1.2648],[103.78956,1.26789],[103.77589,1.28758],[103.75514,1.29711],[103.73015,1.30292],[103.70875,1.30524],[103.66529,1.3041],[103.64763,1.30842],[103.64039,1.32225],[103.6447,1.33804],[103.67457,1.38032],[103.67888,1.39924],[103.68385,1.4099],[103.69508,1.42133],[103.70834,1.42939],[103.71795,1.43098],[103.73976,1.42813],[103.76222,1.43098],[103.79005,1.44428],[103.80494,1.44864],[103.83155,1.44709],[103.85719,1.43871],[103.93247,1.40111],[103.96079,1.3911]]],[[[102.49586,1.36359],[102.51149,1.29531],[102.50953,1.27729],[102.47877,1.27074],[102.43474,1.29914],[102.37233,1.35985],[102.33025,1.41328],[102.31463,1.42133],[102.3047,1.42353],[102.28517,1.43334],[102.13453,1.45572],[102.09555,1.47525],[102.05698,1.51069],[102.02654,1.54767],[102.00441,1.58568],[102.00782,1.61538],[102.05372,1.62735],[102.07244,1.62324],[102.12013,1.60073],[102.13624,1.58954],[102.15235,1.58112],[102.17506,1.57575],[102.23764,1.57026],[102.29786,1.5585],[102.33815,1.5585],[102.34897,1.55463],[102.36915,1.5423],[102.37916,1.53799],[102.46266,1.51545],[102.49049,1.48969],[102.49586,1.4418],[102.49586,1.36359]]],[[[104.54851,-0.39804],[104.59295,-0.44842],[104.59938,-0.4638],[104.59164,-0.48358],[104.57301,-0.50042],[104.53419,-0.52858],[104.52662,-0.54762],[104.52198,-0.59661],[104.51124,-0.61395],[104.47674,-0.61403],[104.44711,-0.58807],[104.42042,-0.57497],[104.39389,-0.61395],[104.38364,-0.6535],[104.37582,-0.66009],[104.35629,-0.66172],[104.34604,-0.5792],[104.33579,-0.54266],[104.32635,-0.52988],[104.31202,-0.532],[104.25587,-0.47552],[104.25367,-0.46006],[104.26319,-0.44622],[104.27703,-0.41302],[104.28403,-0.40106],[104.31186,-0.37835],[104.32472,-0.36484],[104.33253,-0.34645],[104.33937,-0.34645],[104.34555,-0.3637],[104.33481,-0.40488],[104.33937,-0.4284],[104.34604,-0.4284],[104.34832,-0.4074],[104.35288,-0.38738],[104.35971,-0.38738],[104.38266,-0.40146],[104.41578,-0.38193],[104.46957,-0.33213],[104.48927,-0.34938],[104.49676,-0.35394],[104.51824,-0.36256],[104.52491,-0.36688],[104.54851,-0.39804]]],[[[104.92897,-0.23724],[105.01149,-0.28151],[105.0027,-0.29485],[104.98178,-0.2907],[104.95655,-0.28118],[104.93523,-0.27809],[104.91717,-0.28753],[104.92018,-0.299],[104.93067,-0.31341],[104.93523,-0.33213],[104.88168,-0.30836],[104.86354,-0.30543],[104.85133,-0.3012],[104.83286,-0.2824],[104.77809,-0.25758],[104.76344,-0.24293],[104.75074,-0.22715],[104.73552,-0.21445],[104.71266,-0.20924],[104.67091,-0.2116],[104.65496,-0.21592],[104.64039,-0.2234],[104.61695,-0.24033],[104.60621,-0.24407],[104.60035,-0.24358],[104.58513,-0.23724],[104.563,-0.25351],[104.55055,-0.268],[104.54135,-0.27125],[104.52866,-0.26995],[104.52394,-0.26588],[104.51743,-0.25018],[104.50733,-0.2361],[104.49789,-0.22812],[104.4839,-0.22438],[104.45932,-0.2234],[104.44711,-0.22096],[104.43995,-0.21429],[104.43637,-0.20436],[104.43556,-0.19215],[104.43727,-0.18108],[104.44191,-0.17555],[104.4559,-0.16823],[104.49448,-0.13567],[104.51075,-0.1137],[104.51743,-0.08945],[104.52508,-0.00775],[104.53736,0.02131],[104.55836,0.00308],[104.56381,0.02261],[104.56463,0.03034],[104.57163,0.01765],[104.5879,0.00829],[104.62037,-0.00425],[104.67555,-0.05381],[104.68133,-0.06524],[104.64723,-0.07269],[104.64723,-0.08074],[104.65252,-0.08953],[104.65943,-0.09653],[104.66456,-0.09938],[104.67547,-0.0958],[104.68312,-0.08961],[104.69191,-0.0875],[104.70582,-0.09629],[104.73658,-0.12737],[104.75392,-0.17059],[104.76629,-0.18825],[104.78777,-0.19557],[104.81414,-0.1928],[104.82032,-0.18434],[104.81983,-0.16961],[104.82594,-0.14772],[104.84889,-0.13958],[104.87729,-0.1666],[104.92897,-0.23724]]],[[[104.20484,-1.04844],[104.20086,-1.0451],[104.20289,-1.03924],[104.20484,-1.04844]]],[[[104.20948,-1.0429],[104.20712,-1.03729],[104.23902,-1.03501],[104.22967,-1.05267],[104.20867,-1.06048],[104.20761,-1.049],[104.20948,-1.0429]]],[[[104.40545,-0.86297],[104.40618,-0.86452],[104.40496,-0.86509],[104.40333,-0.86313],[104.40545,-0.86297]]],[[[104.23406,-0.66107],[104.23593,-0.65683],[104.24399,-0.66562],[104.23406,-0.66107]]],[[[104.03802,-0.52166],[104.0346,-0.51808],[104.03883,-0.51775],[104.03802,-0.52166]]],[[[104.22071,-0.42384],[104.21583,-0.42913],[104.20362,-0.42791],[104.19516,-0.41985],[104.18832,-0.4013],[104.19003,-0.39552],[104.19654,-0.39341],[104.20305,-0.39349],[104.21095,-0.40065],[104.21567,-0.40057],[104.22462,-0.39536],[104.22722,-0.4013],[104.22071,-0.42384]]],[[[104.20061,-0.38917],[104.18531,-0.38747],[104.18035,-0.38421],[104.17587,-0.37526],[104.17677,-0.36818],[104.18149,-0.36509],[104.18865,-0.36517],[104.19776,-0.36883],[104.20297,-0.37355],[104.21249,-0.37054],[104.22299,-0.36964],[104.2295,-0.37493],[104.22983,-0.38388],[104.22552,-0.3895],[104.21616,-0.39072],[104.20061,-0.38917]]],[[[104.14975,-0.34108],[104.15707,-0.33766],[104.17311,-0.35223],[104.16122,-0.35882],[104.15626,-0.36476],[104.14788,-0.36346],[104.14283,-0.35386],[104.14129,-0.34726],[104.14975,-0.34108]]],[[[104.22283,-0.33904],[104.23235,-0.33009],[104.23593,-0.33546],[104.23772,-0.34246],[104.23561,-0.35418],[104.23227,-0.35849],[104.22202,-0.34661],[104.22283,-0.33904]]],[[[104.92652,-0.13812],[104.92709,-0.13681],[104.92799,-0.1386],[104.92652,-0.13812]]],[[[104.70012,-0.05389],[104.71437,-0.06634],[104.72429,-0.0875],[104.71127,-0.07374],[104.69573,-0.06264],[104.70012,-0.05389]]],[[[104.86826,-0.06264],[104.87517,-0.08188],[104.86948,-0.07448],[104.84523,-0.06024],[104.83481,-0.04986],[104.83465,-0.03867],[104.84523,-0.04428],[104.85483,-0.05267],[104.85662,-0.05739],[104.86826,-0.06264]]],[[[104.7728,0.05109],[104.77605,0.04564],[104.77866,0.03018],[104.76637,0.03563],[104.75465,0.03205],[104.73878,0.03327],[104.73536,0.03799],[104.73455,0.04564],[104.73732,0.04824],[104.74627,0.04438],[104.76262,0.04983],[104.76205,0.06448],[104.7728,0.05109]]],[[[104.5149,0.13121],[104.52068,0.11913],[104.51385,0.11176],[104.50693,0.11677],[104.50318,0.1267],[104.49643,0.12832],[104.48805,0.13544],[104.4865,0.14228],[104.48683,0.14977],[104.49789,0.14574],[104.50432,0.14167],[104.51311,0.13483],[104.5149,0.13121]]],[[[104.30218,0.16437],[104.3213,0.14639],[104.33562,0.12584],[104.33245,0.10489],[104.3283,0.10879],[104.32423,0.10993],[104.31983,0.12108],[104.30958,0.13133],[104.30291,0.12718],[104.29526,0.13797],[104.29575,0.14631],[104.29835,0.15168],[104.29746,0.15819],[104.28956,0.16885],[104.2955,0.16966],[104.30218,0.16437]]],[[[104.23276,0.19473],[104.2378,0.17866],[104.2339,0.1636],[104.22153,0.16096],[104.20102,0.17202],[104.21835,0.19518],[104.22486,0.19945],[104.23276,0.19473]]],[[[104.37265,0.29739],[104.3829,0.28705],[104.38592,0.28181],[104.38429,0.279],[104.36134,0.27546],[104.35499,0.27884],[104.34213,0.29605],[104.32716,0.3072],[104.32399,0.31253],[104.32594,0.32054],[104.34409,0.31761],[104.37265,0.29739]]],[[[104.31552,0.3402],[104.31975,0.33027],[104.31756,0.31497],[104.3117,0.3065],[104.30454,0.31367],[104.30079,0.33832],[104.30144,0.34398],[104.30665,0.34553],[104.31243,0.34353],[104.31552,0.3402]]],[[[104.43108,0.40143],[104.43637,0.40575],[104.45029,0.38768],[104.43474,0.3924],[104.43108,0.40143]]],[[[104.55095,0.42162],[104.55747,0.41197],[104.54493,0.41071],[104.52817,0.41319],[104.52939,0.39863],[104.52817,0.38959],[104.53386,0.36384],[104.53216,0.35838],[104.52996,0.35843],[104.52377,0.36717],[104.52377,0.38133],[104.51759,0.39521],[104.51637,0.4195],[104.51409,0.42695],[104.52215,0.42845],[104.53037,0.42503],[104.54493,0.42447],[104.55095,0.42162]]],[[[103.57423,0.43822],[103.58644,0.42154],[103.58823,0.40701],[103.56202,0.41918],[103.54396,0.44628],[103.57423,0.43822]]],[[[104.39959,0.47337],[104.41163,0.47118],[104.42547,0.46003],[104.41725,0.46003],[104.41131,0.46373],[104.40561,0.46459],[104.39886,0.46792],[104.39959,0.47337]]],[[[104.45403,0.47289],[104.45899,0.45816],[104.43735,0.47879],[104.44231,0.48399],[104.44785,0.48306],[104.45403,0.47289]]],[[[104.29754,0.48086],[104.2977,0.47427],[104.28826,0.50015],[104.28639,0.51048],[104.28264,0.51728],[104.28443,0.5231],[104.2881,0.52497],[104.29265,0.52094],[104.29135,0.51232],[104.29461,0.50483],[104.29453,0.49205],[104.29754,0.48086]]],[[[103.60198,0.52285],[103.61329,0.51048],[103.62119,0.50625],[103.61883,0.49624],[103.60882,0.49608],[103.60198,0.48928],[103.59132,0.52228],[103.57089,0.54597],[103.57,0.55341],[103.57952,0.55711],[103.58139,0.54967],[103.58831,0.53925],[103.59799,0.5305],[103.60198,0.52285]]],[[[104.23886,0.53661],[104.23935,0.53067],[104.2378,0.52973],[104.23292,0.53522],[104.22413,0.53408],[104.22014,0.53933],[104.21941,0.54812],[104.22316,0.55805],[104.23284,0.55524],[104.23886,0.53661]]],[[[104.19182,0.59894],[104.19492,0.60802],[104.19768,0.61066],[104.20069,0.60843],[104.20305,0.59829],[104.21795,0.58849],[104.22381,0.57742],[104.21876,0.57107],[104.21079,0.56957],[104.20419,0.56611],[104.19915,0.55724],[104.19663,0.54295],[104.19093,0.55239],[104.18556,0.58674],[104.18719,0.59195],[104.19182,0.59894]]],[[[103.69125,0.63117],[103.70037,0.62747],[103.70525,0.62352],[103.70037,0.6057],[103.68474,0.60847],[103.68206,0.61241],[103.67636,0.61119],[103.67164,0.61408],[103.67197,0.63093],[103.6705,0.63463],[103.67156,0.63972],[103.67538,0.63768],[103.68165,0.63691],[103.69125,0.63117]]],[[[104.0936,0.63858],[104.10458,0.62865],[104.10336,0.6249],[104.09995,0.62141],[104.09278,0.61758],[104.08709,0.6057],[104.08554,0.61188],[104.08692,0.62731],[104.08416,0.63837],[104.0805,0.64167],[104.08513,0.64696],[104.09002,0.64558],[104.0936,0.63858]]],[[[104.32879,0.66234],[104.31756,0.66657],[104.31821,0.66328],[104.3117,0.66503],[104.31105,0.67805],[104.31381,0.68032],[104.31593,0.68517],[104.32163,0.68602],[104.32691,0.67992],[104.327,0.67341],[104.33074,0.66462],[104.32879,0.66234]]],[[[104.29713,0.67674],[104.28948,0.67414],[104.27906,0.67796],[104.27475,0.68745],[104.27678,0.69123],[104.28346,0.68944],[104.29298,0.69335],[104.29851,0.69294],[104.2999,0.68838],[104.29916,0.68362],[104.30356,0.68093],[104.30405,0.67731],[104.29998,0.67475],[104.29713,0.67674]]],[[[103.73675,0.73648],[103.74431,0.7381],[103.75001,0.7377],[103.74944,0.73139],[103.74562,0.725],[103.73504,0.71442],[103.73471,0.7069],[103.74187,0.69066],[103.73943,0.68724],[103.7308,0.69099],[103.71844,0.69107],[103.69646,0.70987],[103.69158,0.71906],[103.6915,0.72822],[103.6937,0.73168],[103.70224,0.73005],[103.71347,0.73045],[103.73675,0.73648]]],[[[103.6775,0.7141],[103.67661,0.71288],[103.66513,0.72443],[103.66603,0.72911],[103.65585,0.74242],[103.66131,0.7438],[103.68019,0.7366],[103.68849,0.72663],[103.68043,0.7224],[103.68181,0.71804],[103.6775,0.7141]]],[[[104.64137,0.74339],[104.64934,0.74978],[104.65553,0.75174],[104.65358,0.74421],[104.63209,0.71752],[104.62721,0.71365],[104.61972,0.69542],[104.60125,0.70116],[104.5984,0.70669],[104.60418,0.70913],[104.61004,0.71422],[104.6128,0.72329],[104.61134,0.72907],[104.61972,0.73965],[104.629,0.74405],[104.63583,0.74221],[104.64137,0.74339]]],[[[104.71258,0.74523],[104.70672,0.73843],[104.69695,0.74392],[104.69174,0.75764],[104.69923,0.76207],[104.71046,0.75528],[104.71258,0.74523]]],[[[104.31658,0.75121],[104.30706,0.75401],[104.30331,0.76069],[104.31731,0.7624],[104.32814,0.76052],[104.34636,0.75426],[104.35971,0.74482],[104.35564,0.73843],[104.34327,0.74836],[104.32602,0.75349],[104.31658,0.75121]]],[[[104.71754,0.75963],[104.70281,0.76337],[104.69134,0.76891],[104.68873,0.77656],[104.69215,0.78612],[104.70281,0.7908],[104.73536,0.7873],[104.74765,0.78221],[104.7527,0.77058],[104.75416,0.75898],[104.75099,0.75226],[104.74252,0.75056],[104.71754,0.75963]]],[[[103.54998,0.77281],[103.54648,0.76895],[103.54339,0.75401],[103.53028,0.76984],[103.53346,0.79019],[103.53834,0.79348],[103.54575,0.79389],[103.55095,0.78795],[103.55462,0.77623],[103.54998,0.77281]]],[[[104.36085,0.8395],[104.36134,0.84878],[104.36565,0.84878],[104.36736,0.83002],[104.36533,0.81769],[104.35873,0.81444],[104.36085,0.8395]]],[[[104.46567,0.8826],[104.48618,0.87136],[104.48097,0.86738],[104.47177,0.86677],[104.46396,0.85741],[104.43849,0.86982],[104.42921,0.86685],[104.42449,0.8723],[104.42888,0.87897],[104.43914,0.88296],[104.45688,0.88581],[104.46567,0.8826]]],[[[104.69353,0.84846],[104.67644,0.84496],[104.667,0.85126],[104.66424,0.8581],[104.6657,0.86961],[104.67066,0.88052],[104.67905,0.88898],[104.68938,0.89159],[104.69646,0.88817],[104.69752,0.88402],[104.69483,0.87775],[104.69353,0.84846]]],[[[104.64568,0.89159],[104.65463,0.89053],[104.66147,0.88585],[104.65707,0.87857],[104.63632,0.86017],[104.62591,0.85647],[104.6185,0.86457],[104.61826,0.87295],[104.6207,0.8854],[104.62582,0.89419],[104.63299,0.89838],[104.63998,0.89106],[104.64568,0.89159]]],[[[104.05169,0.91848],[104.05592,0.91918],[104.05844,0.91783],[104.05079,0.89602],[104.03834,0.88976],[104.03696,0.89875],[104.03875,0.9018],[104.04412,0.90428],[104.04656,0.91389],[104.05169,0.91848]]],[[[104.14633,0.96267],[104.14755,0.96638],[104.14511,0.97199],[104.16318,0.96825],[104.17221,0.97012],[104.17189,0.95982],[104.1963,0.94864],[104.1998,0.94554],[104.1963,0.9429],[104.19077,0.94335],[104.18336,0.94058],[104.17465,0.94025],[104.16,0.9315],[104.15358,0.93313],[104.14698,0.94811],[104.14649,0.95368],[104.14983,0.95657],[104.14633,0.96267]]],[[[104.07114,0.95999],[104.07879,0.95319],[104.08058,0.94253],[104.07464,0.92288],[104.06365,0.91848],[104.05795,0.92723],[104.05071,0.92886],[104.04794,0.93207],[104.05112,0.96585],[104.05616,0.97354],[104.05934,0.97163],[104.06096,0.96776],[104.07114,0.95999]]],[[[104.25302,0.99567],[104.26075,0.99193],[104.26612,0.98489],[104.26547,0.97777],[104.26157,0.9726],[104.25164,0.97447],[104.24545,0.9726],[104.24008,0.97736],[104.23349,0.97769],[104.23683,0.98973],[104.25302,0.99567]]],[[[104.16708,0.99331],[104.16245,0.99193],[104.15691,0.99657],[104.15691,1.0117],[104.16245,1.01704],[104.17368,1.01805],[104.18116,1.02871],[104.18613,1.02489],[104.18922,1.01651],[104.18751,1.01219],[104.18076,1.00487],[104.18051,0.99938],[104.17001,0.99071],[104.16708,0.99331]]],[[[103.80421,0.98119],[103.80795,0.96747],[103.8047,0.96214],[103.79672,0.96992],[103.78777,0.97394],[103.78069,0.98233],[103.7776,0.99132],[103.77581,1.00918],[103.77247,1.01504],[103.76157,1.00861],[103.75823,1.01284],[103.76083,1.02355],[103.75937,1.0316],[103.77386,1.04548],[103.77442,1.05146],[103.77923,1.0515],[103.78883,1.04682],[103.7929,1.04906],[103.79689,1.04621],[103.80095,1.03177],[103.79957,1.01455],[103.80421,0.98119]]],[[[104.16627,1.02912],[104.16171,1.04344],[104.16546,1.05541],[104.16538,1.06098],[104.17774,1.06656],[104.18613,1.06778],[104.18303,1.0622],[104.19191,1.04918],[104.19044,1.04051],[104.17246,1.02302],[104.16627,1.02912]]],[[[103.81129,1.09903],[103.81495,1.09903],[103.8187,1.09341],[103.81251,1.08535],[103.80274,1.08861],[103.79607,1.09683],[103.80128,1.10997],[103.81129,1.09903]]],[[[103.72023,1.11725],[103.72096,1.11571],[103.71974,1.11506],[103.71811,1.11709],[103.72023,1.11725]]],[[[103.30095,1.1483],[103.3086,1.14305],[103.3086,1.13642],[103.30356,1.12031],[103.2933,1.12185],[103.29623,1.12836],[103.29542,1.13487],[103.29786,1.1411],[103.29737,1.14354],[103.30095,1.1483]]],[[[103.88762,1.1531],[103.88958,1.1579],[103.8921,1.14391],[103.88836,1.14265],[103.87843,1.14529],[103.88266,1.15294],[103.88762,1.1531]]],[[[103.86793,1.15453],[103.86687,1.16132],[103.87184,1.15925],[103.86793,1.15453]]],[[[103.39942,1.1579],[103.4061,1.15001],[103.40797,1.1367],[103.39194,1.13581],[103.3777,1.15607],[103.39161,1.16726],[103.39942,1.1579]]],[[[103.41586,1.336],[103.42587,1.34309],[103.43653,1.32612],[103.4332,1.31688],[103.42441,1.3096],[103.42254,1.3096],[103.41847,1.31387],[103.41586,1.336]]],[[[104.11508,2.32302],[104.12916,2.31928],[104.14129,2.30866],[104.13689,2.29283],[104.13201,2.28693],[104.11695,2.28994],[104.10336,2.29934],[104.09466,2.31122],[104.09588,2.31635],[104.09344,2.31928],[104.09685,2.32229],[104.10263,2.32095],[104.11508,2.32302]]],[[[104.5053,2.45437],[104.50571,2.45938],[104.50384,2.46686],[104.51002,2.47525],[104.52345,2.47753],[104.52719,2.47411],[104.53094,2.46548],[104.54241,2.45934],[104.53924,2.4394],[104.52565,2.43199],[104.51319,2.44973],[104.5053,2.45437]]],[[[104.3283,2.57652],[104.31324,2.5926],[104.31324,2.60277],[104.32293,2.60529],[104.33766,2.59825],[104.33741,2.59382],[104.34425,2.58771],[104.34881,2.5812],[104.33766,2.56973],[104.3283,2.57652]]],[[[103.91774,2.7049],[103.92392,2.70026],[103.92457,2.68749],[103.9205,2.68203],[103.91342,2.68883],[103.91204,2.68838],[103.91261,2.68342],[103.9109,2.68187],[103.90471,2.69746],[103.90886,2.70864],[103.91774,2.7049]]],[[[105.37892,2.74698],[105.3777,2.74604],[105.37623,2.74934],[105.37892,2.74698]]],[[[105.98821,3.0528],[105.9839,3.04999],[105.97991,3.04271],[105.98447,3.03913],[105.97641,3.02375],[105.9734,3.02879],[105.97397,3.03469],[105.96404,3.03205],[105.96681,3.0609],[105.96608,3.06953],[105.97031,3.08385],[105.98447,3.09052],[105.98707,3.08308],[105.98194,3.06302],[105.98821,3.0528]]],[[[105.65187,3.12657],[105.65805,3.1212],[105.66635,3.10692],[105.66619,3.09878],[105.6565,3.10281],[105.65398,3.09972],[105.65496,3.09488],[105.64405,3.10122],[105.64129,3.10773],[105.63876,3.10944],[105.64121,3.11201],[105.64121,3.12503],[105.65187,3.12657]]],[[[106.41798,3.15945],[106.427,3.15638],[106.427,3.13842],[106.41822,3.14106],[106.41017,3.13837],[106.40073,3.14204],[106.40577,3.15086],[106.41489,3.16201],[106.41798,3.15945]]],[[[106.19728,3.30313],[106.19451,3.29576],[106.18808,3.30598],[106.18092,3.31224],[106.17018,3.33051],[106.174,3.34081],[106.19915,3.3555],[106.20232,3.36388],[106.19776,3.38003],[106.20468,3.38915],[106.21884,3.39484],[106.22527,3.39285],[106.22104,3.38752],[106.21811,3.3784],[106.2186,3.36367],[106.22397,3.35366],[106.23308,3.35318],[106.2308,3.33625],[106.21632,3.30565],[106.20851,3.30593],[106.20346,3.31391],[106.20248,3.32616],[106.20029,3.33002],[106.19776,3.32831],[106.19622,3.32278],[106.19728,3.30313]]],[[[103.04868,0.79702],[103.05445,0.77774],[103.05763,0.77704],[103.04908,0.7578],[103.04371,0.72069],[103.0337,0.70502],[103.01734,0.69611],[103.00733,0.69383],[102.99977,0.70075],[102.98243,0.72236],[102.92994,0.77001],[102.8947,0.78998],[102.85222,0.79816],[102.76686,0.79133],[102.74513,0.79377],[102.70216,0.8039],[102.68149,0.80492],[102.59767,0.78506],[102.55787,0.78026],[102.51637,0.79133],[102.4673,0.82697],[102.45802,0.83222],[102.4065,0.87324],[102.40943,0.89472],[102.42457,0.9145],[102.44508,0.92902],[102.48943,0.93976],[102.50066,0.95327],[102.50172,0.97289],[102.4699,1.06737],[102.46762,1.10643],[102.48902,1.13329],[102.52752,1.13984],[102.55641,1.12568],[102.60792,1.06892],[102.61573,1.05768],[102.61736,1.04426],[102.6089,1.02778],[102.60548,1.01118],[102.62176,1.00161],[102.64527,0.99722],[102.66375,0.99608],[102.67807,0.99942],[102.70533,1.0139],[102.71876,1.01728],[102.74301,1.01594],[102.76385,1.01118],[102.78256,1.00178],[102.83253,0.96377],[102.90903,0.92772],[103.02174,0.84528],[103.03647,0.82819],[103.04038,0.82128],[103.04868,0.79702]]],[[[101.7212,2.05809],[101.75799,2.0113],[101.77027,1.98505],[101.77556,1.94798],[101.76775,1.9256],[101.73585,1.88768],[101.72877,1.86323],[101.73243,1.81794],[101.72918,1.79906],[101.7151,1.77823],[101.66627,1.74494],[101.65984,1.73347],[101.64942,1.72224],[101.62525,1.71442],[101.5975,1.71003],[101.57732,1.7093],[101.53061,1.71817],[101.512,1.72684],[101.512,2.06314],[101.53102,2.05646],[101.55055,2.05809],[101.56642,2.06794],[101.61508,2.11709],[101.64926,2.12849],[101.68165,2.10895],[101.7072,2.0788],[101.7212,2.05809]]]]}}]}