{"type":"FeatureCollection","features":[{"type":"Feature","properties":{"kind":"land","source":"ne_10m_land.shp"},"geometry":{"type":"MultiPolygon","coordinates":[[[[103.0,2.1],[104.03733,2.1],[104.04884,2.07176],[104.06723,2.04682],[104.07887,2.0218],[104.08546,2.01097],[104.10646,1.98688],[104.1128,1.97614],[104.12086,1.95405],[104.12233,1.93464],[104.11964,1.89118],[104.12428,1.87055],[104.13543,1.84894],[104.14918,1.83747],[104.16114,1.84707],[104.16749,1.84707],[104.19532,1.79873],[104.20427,1.75288],[104.22291,1.72687],[104.22804,1.7121],[104.2295,1.67829],[104.23536,1.66437],[104.24724,1.65054],[104.25522,1.63776],[104.24985,1.62735],[104.25652,1.61384],[104.26368,1.57217],[104.28403,1.51748],[104.29371,1.47158],[104.29469,1.44652],[104.28785,1.43553],[104.27955,1.42646],[104.2824,1.38264],[104.27735,1.36734],[104.23959,1.36734],[104.23463,1.364],[104.22413,1.34951],[104.21925,1.34618],[104.17408,1.34821],[104.15447,1.35228],[104.11402,1.36848],[104.10621,1.37519],[104.10524,1.3854],[104.10597,1.40449],[104.1006,1.41885],[104.08863,1.42943],[104.07488,1.43871],[104.06495,1.44864],[104.05942,1.48534],[104.08627,1.50288],[104.12322,1.51752],[104.14763,1.5454],[104.12892,1.54971],[104.11118,1.54507],[104.09449,1.53522],[104.0608,1.51008],[104.0534,1.50629],[104.04982,1.51309],[104.04396,1.5312],[104.01222,1.59687],[103.98854,1.63239],[103.96599,1.64785],[103.96022,1.63581],[103.97039,1.60863],[104.00831,1.54873],[104.00864,1.53486],[104.00343,1.5069],[104.00571,1.49384],[104.01002,1.47948],[104.01246,1.46426],[104.00978,1.44864],[103.97446,1.41983],[103.92652,1.43171],[103.83969,1.47655],[103.8143,1.47451],[103.7741,1.45368],[103.7531,1.44864],[103.71266,1.45209],[103.6976,1.45063],[103.68141,1.4418],[103.63006,1.37743],[103.60011,1.35346],[103.56471,1.35985],[103.56275,1.36441],[103.55551,1.37474],[103.54786,1.38207],[103.5442,1.37718],[103.54526,1.36595],[103.55006,1.35106],[103.55104,1.34284],[103.54851,1.33169],[103.53053,1.30524],[103.51637,1.27045],[103.50408,1.28994],[103.469,1.31997],[103.45484,1.33942],[103.4463,1.35932],[103.41391,1.46784],[103.39536,1.50642],[103.36736,1.5384],[103.32504,1.56533],[103.20607,1.61042],[103.03712,1.71552],[103.0,1.73319],[103.0,2.1]]],[[[103.0,0.6],[103.0,0.62287],[103.01995,0.6],[103.0,0.6]]],[[[103.81861,0.88622],[103.86329,0.8769],[103.8982,0.85334],[103.92416,0.82246],[103.94215,0.79133],[103.94142,0.7757],[103.93287,0.77033],[103.9214,0.77277],[103.91139,0.78075],[103.89503,0.81025],[103.88746,0.81802],[103.85174,0.83535],[103.84596,0.84247],[103.8423,0.85065],[103.81861,0.88007],[103.81861,0.88622]]],[[[103.94215,0.99608],[103.952,0.98794],[103.96144,0.9748],[103.9673,0.96011],[103.96664,0.94721],[103.95883,0.93976],[103.9463,0.93561],[103.93279,0.93403],[103.92164,0.93464],[103.91139,0.93793],[103.85662,0.96841],[103.84645,0.97748],[103.83969,0.98994],[103.83888,1.003],[103.84474,1.01268],[103.85662,1.01439],[103.87379,1.00361],[103.87371,1.01191],[103.88006,1.03148],[103.89283,1.01435],[103.90903,1.00593],[103.94215,0.99608]]],[[[104.28403,0.70816],[104.27442,0.70344],[104.26482,0.70222],[104.25538,0.7049],[104.23609,0.71845],[104.21453,0.72118],[104.20558,0.72606],[104.19166,0.746],[104.18824,0.76447],[104.19581,0.77997],[104.21583,0.79133],[104.2339,0.78644],[104.24488,0.78653],[104.24985,0.79475],[104.25416,0.79784],[104.26368,0.79914],[104.27296,0.79654],[104.27735,0.78791],[104.2776,0.76431],[104.2798,0.74706],[104.2859,0.73037],[104.2977,0.70816],[104.28403,0.70816]]],[[[103.29363,0.62543],[103.29786,0.60472],[103.2982,0.6],[103.14311,0.6],[103.15895,0.66478],[103.17921,0.6955],[103.21176,0.70816],[103.23024,0.70417],[103.24692,0.69404],[103.26149,0.68032],[103.2732,0.66568],[103.28517,0.64639],[103.29363,0.62543]]],[[[103.48902,0.77704],[103.50196,0.76337],[103.50685,0.75544],[103.51002,0.74287],[103.48032,0.68525],[103.45948,0.65811],[103.43434,0.64728],[103.4157,0.65738],[103.40309,0.67821],[103.39373,0.6988],[103.3838,0.70816],[103.34555,0.76337],[103.34051,0.784],[103.33872,0.80492],[103.34116,0.81737],[103.35035,0.83918],[103.35743,0.87246],[103.36988,0.88605],[103.38551,0.88886],[103.40089,0.88007],[103.41,0.86457],[103.41749,0.8465],[103.42758,0.83161],[103.45973,0.82038],[103.47047,0.80793],[103.48902,0.77704]]],[[[103.44313,1.01276],[103.44483,1.00617],[103.44483,1.00031],[103.44223,0.99527],[103.43702,0.9914],[103.42359,0.99018],[103.40756,0.99494],[103.38038,1.00983],[103.35768,1.00446],[103.34083,1.01952],[103.31479,1.06159],[103.3156,1.07319],[103.3235,1.09276],[103.33383,1.1114],[103.34213,1.1197],[103.34791,1.12177],[103.36647,1.13117],[103.37672,1.13329],[103.38982,1.13028],[103.39137,1.12246],[103.38819,1.11172],[103.38722,1.0998],[103.39308,1.07608],[103.3978,1.06415],[103.40398,1.05484],[103.40968,1.05117],[103.4227,1.04971],[103.4284,1.04719],[103.43141,1.04271],[103.43165,1.03815],[103.43116,1.03339],[103.4319,1.02839],[103.43426,1.02424],[103.4406,1.01716],[103.44313,1.01276]]],[[[104.14633,1.16047],[104.15235,1.14004],[104.1517,1.11945],[104.13111,1.04877],[104.12322,1.04963],[104.10597,1.06501],[104.10418,1.05777],[104.10418,1.05166],[104.1067,1.04548],[104.1128,1.03775],[104.1045,1.03327],[104.1006,1.02704],[104.09783,1.01911],[104.0923,1.00983],[104.09156,1.00556],[104.09327,0.99364],[104.0923,0.98994],[104.0879,0.98896],[104.07643,0.99046],[104.07179,0.98994],[104.04916,0.9842],[104.03175,0.98945],[103.9961,1.00983],[103.98797,1.01048],[103.96664,1.00812],[103.95582,1.00983],[103.95053,1.01411],[103.91822,1.05134],[103.90675,1.07168],[103.9026,1.09052],[103.91407,1.0998],[103.92384,1.09614],[103.93816,1.07958],[103.94899,1.0786],[103.95623,1.08487],[103.95533,1.09357],[103.95135,1.10358],[103.94654,1.1247],[103.94321,1.13093],[103.94451,1.13524],[103.95582,1.14077],[103.96705,1.14167],[103.98764,1.13422],[103.9961,1.13329],[104.01108,1.14472],[104.01922,1.17886],[104.03094,1.18789],[104.04135,1.18138],[104.07081,1.14594],[104.08546,1.13329],[104.09164,1.14549],[104.09156,1.15843],[104.0866,1.17097],[104.07862,1.18171],[104.09059,1.18781],[104.1032,1.18952],[104.11573,1.18724],[104.1277,1.1813],[104.13819,1.17202],[104.14275,1.16649],[104.14633,1.16047]]],[[[104.22608,0.88007],[104.24147,0.87702],[104.25782,0.8686],[104.26629,0.85586],[104.2575,0.83967],[104.25025,0.83002],[104.23951,0.82246],[104.18751,0.79926],[104.17644,0.79849],[104.16749,0.80492],[104.16114,0.81879],[104.15602,0.84638],[104.14763,0.85895],[104.13413,0.86725],[104.10719,0.87299],[104.0923,0.88007],[104.09938,0.89476],[104.094,0.93309],[104.09913,0.94892],[104.11256,0.95258],[104.1277,0.94253],[104.15748,0.91079],[104.16293,0.90192],[104.16635,0.89179],[104.17213,0.88349],[104.18483,0.88007],[104.22608,0.88007]]],[[[103.0796,0.62442],[103.08432,0.60855],[103.08545,0.6],[103.05647,0.6],[103.04566,0.62783],[103.0433,0.64045],[103.04086,0.64671],[103.03728,0.65266],[103.03663,0.65754],[103.0433,0.66096],[103.05543,0.65868],[103.06577,0.64924],[103.07399,0.63646],[103.0796,0.62442]]],[[[103.50636,0.70189],[103.51743,0.69843],[103.52182,0.68985],[103.52133,0.67866],[103.51791,0.66763],[103.50611,0.64077],[103.49789,0.62702],[103.48902,0.61994],[103.47202,0.62299],[103.46925,0.6374],[103.47389,0.65347],[103.47901,0.66096],[103.48585,0.66739],[103.49952,0.6955],[103.50636,0.70189]]],[[[103.1128,0.79295],[103.12094,0.77997],[103.11622,0.75776],[103.1045,0.73542],[103.0923,0.72236],[103.08627,0.72468],[103.08082,0.73428],[103.07716,0.74551],[103.07586,0.75283],[103.07716,0.76089],[103.08025,0.76862],[103.08473,0.7757],[103.09457,0.78604],[103.10035,0.79019],[103.10662,0.79295],[103.1128,0.79295]]],[[[104.56463,0.79816],[104.60564,0.79389],[104.62159,0.78742],[104.62045,0.77704],[104.61354,0.76586],[104.6019,0.76435],[104.57203,0.77082],[104.55397,0.7707],[104.54103,0.76659],[104.51124,0.75031],[104.51189,0.77375],[104.52345,0.7884],[104.54233,0.79588],[104.56463,0.79816]]],[[[103.66774,0.83967],[103.70265,0.81415],[103.71811,0.79808],[103.72731,0.77985],[103.72486,0.76651],[103.71339,0.76244],[103.70094,0.76569],[103.69508,0.77391],[103.68881,0.79165],[103.66651,0.82364],[103.66774,0.83967]]],[[[103.46217,0.91893],[103.47267,0.90884],[103.4795,0.89362],[103.47934,0.87885],[103.469,0.86961],[103.45826,0.8697],[103.44467,0.8736],[103.43295,0.88068],[103.42807,0.89004],[103.42156,0.89671],[103.41041,0.90473],[103.40707,0.91144],[103.45346,0.92056],[103.46217,0.91893]]],[[[103.51873,0.81843],[103.5232,0.80793],[103.52442,0.79849],[103.52345,0.77782],[103.49049,0.82128],[103.47592,0.83222],[103.44028,0.84422],[103.42579,0.8544],[103.42123,0.87324],[103.43084,0.86766],[103.48854,0.84545],[103.49733,0.84024],[103.50554,0.83397],[103.51271,0.82681],[103.51873,0.81843]]],[[[104.21583,0.70816],[104.24147,0.69538],[104.27052,0.67503],[104.28761,0.65078],[104.27735,0.62617],[104.26645,0.633],[104.26026,0.64338],[104.24985,0.66718],[104.22202,0.69603],[104.21583,0.70816]]],[[[104.65943,0.84589],[104.66277,0.83421],[104.66326,0.82909],[104.66139,0.82014],[104.65659,0.81387],[104.65154,0.80996],[104.64283,0.80683],[104.63038,0.80655],[104.6255,0.8107],[104.63022,0.81635],[104.63543,0.82856],[104.63917,0.84797],[104.64861,0.8579],[104.65943,0.84589]]],[[[103.80177,0.85273],[103.81707,0.8417],[103.83107,0.81635],[103.83953,0.7884],[103.83766,0.76952],[103.83229,0.76537],[103.82667,0.76569],[103.82106,0.76895],[103.80128,0.78425],[103.76393,0.80492],[103.74635,0.82274],[103.73048,0.84756],[103.72625,0.87324],[103.74342,0.89374],[103.75025,0.88886],[103.76775,0.88434],[103.7776,0.88007],[103.80177,0.85273]]],[[[103.12648,0.92788],[103.16326,0.8996],[103.17457,0.88215],[103.16749,0.85895],[103.12713,0.83442],[103.08627,0.84101],[103.0,0.89454],[103.0,1.06949],[103.03712,1.04458],[103.07765,1.0034],[103.12648,0.92788]]],[[[104.65455,1.09638],[104.65642,1.08039],[104.66749,1.03059],[104.65162,1.00902],[104.64715,0.99689],[104.65398,0.97687],[104.6548,0.9477],[104.65773,0.94147],[104.66163,0.93724],[104.6587,0.92788],[104.64991,0.91844],[104.63697,0.91421],[104.62355,0.91218],[104.61638,0.9062],[104.61354,0.89643],[104.61305,0.88312],[104.59986,0.83503],[104.56707,0.82954],[104.48341,0.85895],[104.48927,0.87515],[104.48373,0.8933],[104.46949,0.90811],[104.44923,0.91421],[104.44923,0.92162],[104.4734,0.9206],[104.48463,0.92219],[104.49024,0.92788],[104.48658,0.93708],[104.47486,0.94009],[104.44923,0.94147],[104.42897,0.94892],[104.42107,0.95661],[104.42123,0.96882],[104.42758,0.9748],[104.46274,0.9831],[104.45802,0.99372],[104.45737,1.00194],[104.46274,1.01728],[104.46827,1.01805],[104.47967,1.02534],[104.4852,1.03368],[104.47299,1.03775],[104.46778,1.04092],[104.45777,1.055],[104.45248,1.05817],[104.43873,1.05687],[104.42994,1.05362],[104.38624,1.02985],[104.37143,1.02562],[104.34946,1.02407],[104.34059,1.0209],[104.32716,1.00678],[104.31544,1.00361],[104.2815,1.00214],[104.27101,1.00361],[104.24562,1.01728],[104.24138,1.03555],[104.24244,1.05589],[104.23276,1.07559],[104.23194,1.09333],[104.25636,1.10887],[104.30519,1.12645],[104.31658,1.13288],[104.32228,1.13866],[104.33253,1.15445],[104.33676,1.16503],[104.33725,1.17373],[104.34132,1.17959],[104.35629,1.18171],[104.37843,1.1765],[104.38933,1.17866],[104.39389,1.1916],[104.39967,1.20262],[104.41261,1.20063],[104.43556,1.18789],[104.47608,1.17829],[104.50815,1.17951],[104.5381,1.19025],[104.57203,1.20905],[104.56804,1.22016],[104.57569,1.22541],[104.58692,1.21992],[104.59254,1.1988],[104.58692,1.16205],[104.58823,1.1446],[104.59938,1.12645],[104.64715,1.10497],[104.65455,1.09638]]],[[[103.96079,1.3911],[103.98569,1.38544],[103.99952,1.38032],[104.00343,1.37417],[103.99187,1.35493],[103.97486,1.33446],[103.95436,1.3181],[103.9319,1.31147],[103.90724,1.30874],[103.88771,1.30126],[103.85271,1.27729],[103.84693,1.27192],[103.84409,1.2685],[103.83888,1.26626],[103.82602,1.26431],[103.80161,1.2648],[103.78956,1.26789],[103.78443,1.27387],[103.77589,1.28758],[103.75514,1.29711],[103.73015,1.30292],[103.70875,1.30524],[103.66529,1.3041],[103.64763,1.30842],[103.64039,1.32225],[103.6447,1.33804],[103.67457,1.38032],[103.67888,1.39924],[103.68385,1.4099],[103.69508,1.42133],[103.70834,1.42939],[103.71795,1.43098],[103.73976,1.42813],[103.76222,1.43098],[103.79005,1.44428],[103.80494,1.44864],[103.83155,1.44709],[103.85719,1.43871],[103.93247,1.40111],[103.96079,1.3911]]],[[[104.19218,0.6],[104.19492,0.60802],[104.19768,0.61066],[104.20069,0.60843],[104.20102,0.60354],[104.20239,0.6],[104.19218,0.6]]],[[[103.69125,0.63117],[103.70037,0.62747],[103.70525,0.62352],[103.702,0.61498],[103.70029,0.60879],[103.70037,0.6057],[103.68474,0.60847],[103.68206,0.61241],[103.67636,0.61119],[103.67164,0.61408],[103.67123,0.62238],[103.67197,0.63093],[103.6705,0.63463],[103.67156,0.63972],[103.67538,0.63768],[103.68165,0.63691],[103.69125,0.63117]]],[[[104.0936,0.63858],[104.09962,0.63247],[104.10458,0.62865],[104.10336,0.6249],[104.09995,0.62141],[104.09278,0.61758],[104.08709,0.6057],[104.08554,0.61188],[104.08692,0.62731],[104.08416,0.63837],[104.0805,0.64167],[104.08513,0.64696],[104.09002,0.64558],[104.0936,0.63858]]],[[[104.32879,0.66234],[104.31756,0.66657],[104.31821,0.66328],[104.3117,0.66503],[104.31056,0.67422],[104.31105,0.67805],[104.31381,0.68032],[104.31593,0.68517],[104.32163,0.68602],[104.32691,0.67992],[104.327,0.67341],[104.33074,0.66462],[104.32879,0.66234]]],[[[104.29713,0.67674],[104.28948,0.67414],[104.27906,0.67796],[104.27475,0.68745],[104.27678,0.69123],[104.28346,0.68944],[104.29298,0.69335],[104.29851,0.69294],[104.2999,0.68838],[104.29916,0.68362],[104.30022,0.68207],[104.30356,0.68093],[104.30405,0.67731],[104.29998,0.67475],[104.29713,0.67674]]],[[[103.73675,0.73648],[103.74431,0.7381],[103.75001,0.7377],[103.74944,0.73139],[103.74562,0.725],[103.73992,0.72057],[103.73504,0.71442],[103.73471,0.7069],[103.74187,0.69066],[103.73943,0.68724],[103.7308,0.69099],[103.71844,0.69107],[103.69646,0.70987],[103.69158,0.71906],[103.6915,0.72822],[103.6937,0.73168],[103.70224,0.73005],[103.71347,0.73045],[103.73675,0.73648]]],[[[103.6775,0.7141],[103.67661,0.71288],[103.66928,0.72146],[103.66513,0.72443],[103.66603,0.72911],[103.65585,0.74242],[103.66131,0.7438],[103.68019,0.7366],[103.68849,0.72663],[103.68043,0.7224],[103.68181,0.71804],[103.6775,0.7141]]],[[[104.64137,0.74339],[104.64934,0.74978],[104.65553,0.75174],[104.65358,0.74421],[104.6421,0.72964],[104.63828,0.72663],[104.63738,0.72382],[104.63404,0.72045],[104.63209,0.71752],[104.62721,0.71365],[104.62184,0.69945],[104.62053,0.69766],[104.61972,0.69542],[104.61736,0.69644],[104.60857,0.69794],[104.60125,0.70116],[104.5984,0.70669],[104.60418,0.70913],[104.61004,0.71422],[104.6128,0.72329],[104.61134,0.72907],[104.61508,0.73465],[104.61972,0.73965],[104.62452,0.7414],[104.629,0.74405],[104.63022,0.74405],[104.63583,0.74221],[104.64137,0.74339]]],[[[104.7,0.74221],[104.69695,0.74392],[104.69174,0.75764],[104.69923,0.76207],[104.7,0.7616],[104.7,0.74221]]],[[[104.31658,0.75121],[104.30706,0.75401],[104.30331,0.76069],[104.31731,0.7624],[104.32814,0.76052],[104.34636,0.75426],[104.35971,0.74482],[104.35564,0.73843],[104.34327,0.74836],[104.32602,0.75349],[104.31658,0.75121]]],[[[104.7,0.76473],[104.69134,0.76891],[104.68873,0.77656],[104.69215,0.78612],[104.7,0.78956],[104.7,0.76473]]],[[[103.54998,0.77281],[103.54648,0.76895],[103.54339,0.75401],[103.53028,0.76984],[103.53199,0.78425],[103.53346,0.79019],[103.53834,0.79348],[103.54575,0.79389],[103.55095,0.78795],[103.55462,0.77623],[103.54998,0.77281]]],[[[104.36085,0.8395],[104.36134,0.84878],[104.36565,0.84878],[104.36622,0.83812],[104.36736,0.83002],[104.36533,0.81769],[104.35873,0.81444],[104.36085,0.8395]]],[[[104.46567,0.8826],[104.46925,0.87983],[104.48618,0.87136],[104.48097,0.86738],[104.47177,0.86677],[104.46396,0.85741],[104.45476,0.86253],[104.43849,0.86982],[104.42921,0.86685],[104.42449,0.8723],[104.42888,0.87897],[104.43914,0.88296],[104.45688,0.88581],[104.46567,0.8826]]],[[[104.69353,0.84846],[104.68914,0.84671],[104.68426,0.8465],[104.681,0.84508],[104.67644,0.84496],[104.67075,0.84801],[104.667,0.85126],[104.66424,0.8581],[104.6657,0.86961],[104.67066,0.88052],[104.67905,0.88898],[104.68938,0.89159],[104.69646,0.88817],[104.69752,0.88402],[104.69483,0.87775],[104.69353,0.84846]]],[[[104.64568,0.89159],[104.65463,0.89053],[104.66147,0.88585],[104.65707,0.87857],[104.63632,0.86017],[104.62591,0.85647],[104.62062,0.86115],[104.6185,0.86457],[104.61826,0.87295],[104.6207,0.8854],[104.62582,0.89419],[104.62981,0.89704],[104.63299,0.89838],[104.63998,0.89106],[104.64568,0.89159]]],[[[104.05169,0.91848],[104.05592,0.91918],[104.05844,0.91783],[104.05551,0.90851],[104.05299,0.90306],[104.05079,0.89602],[104.04762,0.8935],[104.03924,0.88976],[104.03834,0.88976],[104.03867,0.89159],[104.03696,0.89875],[104.03875,0.9018],[104.04412,0.90428],[104.04656,0.91389],[104.05169,0.91848]]],[[[104.14633,0.96267],[104.14755,0.96638],[104.14511,0.97199],[104.15089,0.96992],[104.16318,0.96825],[104.17221,0.97012],[104.17189,0.95982],[104.1963,0.94864],[104.1998,0.94554],[104.1963,0.9429],[104.19077,0.94335],[104.18735,0.94139],[104.18336,0.94058],[104.17465,0.94025],[104.16692,0.93647],[104.16318,0.93244],[104.16,0.9315],[104.15358,0.93313],[104.14934,0.94099],[104.14942,0.94444],[104.14698,0.94811],[104.14649,0.95368],[104.14983,0.95657],[104.14633,0.96267]]],[[[104.07114,0.95999],[104.07879,0.95319],[104.08058,0.94253],[104.07464,0.92288],[104.06365,0.91848],[104.05795,0.92723],[104.05494,0.92882],[104.05071,0.92886],[104.04794,0.93207],[104.05112,0.96585],[104.05616,0.97354],[104.05934,0.97163],[104.06096,0.96776],[104.07114,0.95999]]],[[[104.25302,0.99567],[104.26075,0.99193],[104.26612,0.98489],[104.26547,0.97777],[104.26157,0.9726],[104.25164,0.97447],[104.24545,0.9726],[104.24008,0.97736],[104.23349,0.97769],[104.23471,0.98481],[104.23683,0.98973],[104.25302,0.99567]]],[[[104.16708,0.99331],[104.16245,0.99193],[104.15691,0.99657],[104.15691,1.0117],[104.16245,1.01704],[104.17368,1.01805],[104.17685,1.0218],[104.18116,1.02871],[104.18613,1.02489],[104.18922,1.01651],[104.18751,1.01219],[104.18076,1.00487],[104.18051,0.99938],[104.17001,0.99071],[104.16708,0.99331]]],[[[103.80421,0.98119],[103.8069,0.97427],[103.80795,0.96747],[103.8047,0.96214],[103.80136,0.96621],[103.79672,0.96992],[103.78777,0.97394],[103.78069,0.98233],[103.7776,0.99132],[103.77581,1.00918],[103.77247,1.01504],[103.76726,1.01297],[103.76157,1.00861],[103.75823,1.01284],[103.76083,1.02355],[103.75937,1.0316],[103.77386,1.04548],[103.77442,1.05146],[103.77923,1.0515],[103.78883,1.04682],[103.7929,1.04906],[103.79689,1.04621],[103.80095,1.03177],[103.80079,1.01952],[103.79957,1.01455],[103.80421,0.98119]]],[[[104.16627,1.02912],[104.16171,1.04344],[104.16546,1.05541],[104.16538,1.06098],[104.17774,1.06656],[104.18613,1.06778],[104.18303,1.0622],[104.19191,1.04918],[104.19044,1.04051],[104.18572,1.03587],[104.17823,1.02949],[104.17246,1.02302],[104.16627,1.02912]]],[[[103.81129,1.09903],[103.81495,1.09903],[103.8187,1.09341],[103.81251,1.08535],[103.80274,1.08861],[103.79607,1.09683],[103.80128,1.10997],[103.80869,1.10273],[103.81129,1.09903]]],[[[103.72023,1.11725],[103.72063,1.11746],[103.72096,1.11571],[103.71974,1.11506],[103.71811,1.11709],[103.72006,1.11799],[103.72023,1.11725]]],[[[103.30095,1.1483],[103.30543,1.14582],[103.3086,1.14305],[103.3086,1.13642],[103.30356,1.12031],[103.2933,1.12185],[103.29623,1.12836],[103.29542,1.13487],[103.29786,1.1411],[103.29737,1.14354],[103.30095,1.1483]]],[[[103.88762,1.1531],[103.88958,1.1579],[103.8921,1.14391],[103.88836,1.14265],[103.87843,1.14529],[103.88266,1.15294],[103.88762,1.1531]]],[[[103.86793,1.15453],[103.86687,1.16132],[103.87184,1.15925],[103.86793,1.15453]]],[[[103.39942,1.1579],[103.4061,1.15001],[103.40797,1.1367],[103.39194,1.13581],[103.3777,1.15607],[103.39161,1.16726],[103.39942,1.1579]]],[[[103.41586,1.336],[103.42587,1.34309],[103.43653,1.32612],[103.4332,1.31688],[103.42441,1.3096],[103.42254,1.3096],[103.41847,1.31387],[103.41586,1.336]]],[[[103.04868,0.79702],[103.05177,0.78465],[103.05445,0.77774],[103.05763,0.77704],[103.04908,0.7578],[103.04371,0.72069],[103.0337,0.70502],[103.02784,0.70124],[103.01734,0.69611],[103.00733,0.69383],[103.00294,0.69847],[103.0,0.70058],[103.0,0.86118],[103.02174,0.84528],[103.03647,0.82819],[103.04038,0.82128],[103.04868,0.79702]]]]}}]}