{"type":"FeatureCollection","features":[{"type":"Feature","properties":{"id":"Lim Chu Kang","name":"Lim Chu Kang","forecastArea":"Lim Chu Kang"},"geometry":{"type":"MultiPolygon","coordinates":[[[[103.69701,1.42432],[103.69713,1.42611],[103.69578,1.42774],[103.69503,1.43153],[103.69432,1.43243],[103.69339,1.43263],[103.69093,1.43946],[103.69236,1.43981],[103.69716,1.44323],[103.70205,1.4507],[103.71241,1.45739],[103.72663,1.46006],[103.7381,1.45453],[103.74509,1.45031],[103.73708,1.44055],[103.73721,1.43741],[103.73805,1.43764],[103.73848,1.43832],[103.74079,1.43829],[103.74319,1.4318],[103.7436,1.42827],[103.74326,1.42637],[103.72834,1.41136],[103.71856,1.41107],[103.71707,1.41344],[103.71559,1.41446],[103.71468,1.41433],[103.71287,1.41285],[103.71087,1.413],[103.70895,1.41239],[103.70532,1.41226],[103.70223,1.4153],[103.70174,1.41639],[103.70097,1.41677],[103.70157,1.41805],[103.69865,1.41864],[103.70011,1.42319],[103.69701,1.42432]]]]}},{"type":"Feature","properties":{"id":"Novena","name":"Novena","forecastArea":"Novena"},"geometry":{"type":"MultiPolygon","coordinates":[[[[103.83617,1.34179],[103.8373,1.33948],[103.83708,1.33484],[103.83909,1.3307],[103.8405,1.329],[103.8426,1.32963],[103.84792,1.3298],[103.85657,1.32912],[103.8609,1.33046],[103.86235,1.33044],[103.86218,1.32863],[103.86117,1.32662],[103.85574,1.32109],[103.85374,1.3197],[103.84807,1.31694],[103.84634,1.31549],[103.84555,1.31435],[103.84432,1.31056],[103.83953,1.31274],[103.83511,1.31755],[103.82012,1.32236],[103.81335,1.32327],[103.81417,1.32877],[103.81794,1.33437],[103.82036,1.33946],[103.8248,1.34115],[103.83297,1.34042],[103.83617,1.34179]]]]}},{"type":"Feature","properties":{"id":"Bukit Merah","name":"Bukit Merah","forecastArea":"Bukit Merah"},"geometry":{"type":"MultiPolygon","coordinates":[[[[103.81743,1.29431],[103.81787,1.29393],[103.82169,1.29353],[103.82439,1.29193],[103.8286,1.29272],[103.83104,1.29208],[103.83343,1.29237],[103.83501,1.28922],[103.83476,1.28585],[103.83534,1.28407],[103.83924,1.28079],[103.84215,1.27259],[103.84568,1.27256],[103.85156,1.26926],[103.8518,1.26357],[103.85067,1.26304],[103.85207,1.26146],[103.84652,1.25607],[103.8386,1.25543],[103.83615,1.2541],[103.83118,1.25566],[103.82812,1.25616],[103.81897,1.26079],[103.8057,1.26088],[103.80257,1.25781],[103.79558,1.26185],[103.80156,1.27271],[103.80221,1.27269],[103.80201,1.27535],[103.80313,1.27893],[103.80123,1.28324],[103.8029,1.28645],[103.80499,1.28792],[103.80887,1.29239],[103.81536,1.29152],[103.81597,1.29409],[103.81743,1.29431]]]]}},{"type":"Feature","properties":{"id":"Sembawang","name":"Sembawang","forecastArea":"Sembawang"},"geometry":{"type":"MultiPolygon","coordinates":[[[[103.84781,1.46052],[103.83306,1.45139],[103.83669,1.44562],[103.83031,1.44163],[103.8292,1.43823],[103.82786,1.43658],[103.8258,1.43567],[103.82588,1.43536],[103.82438,1.43508],[103.82296,1.43571],[103.81955,1.43956],[103.81659,1.44191],[103.80719,1.44617],[103.80457,1.44808],[103.80291,1.45034],[103.8005,1.45667],[103.79757,1.45552],[103.79442,1.45822],[103.79331,1.46047],[103.79281,1.46047],[103.78926,1.46552],[103.80194,1.47644],[103.81094,1.47841],[103.82044,1.47663],[103.83243,1.47294],[103.85027,1.4661],[103.85385,1.46437],[103.84781,1.46052]]]]}},{"type":"Feature","properties":{"id":"Sengkang","name":"Sengkang","forecastArea":"Sengkang"},"geometry":{"type":"MultiPolygon","coordinates":[[[[103.88812,1.40106],[103.89597,1.39992],[103.90065,1.39846],[103.90358,1.39687],[103.90739,1.39385],[103.9175,1.38236],[103.91553,1.37994],[103.91081,1.37687],[103.91004,1.37586],[103.90794,1.37869],[103.90506,1.38035],[103.89692,1.37934],[103.89485,1.38],[103.89089,1.3803],[103.88368,1.38631],[103.88008,1.38844],[103.87793,1.38867],[103.87299,1.38731],[103.85811,1.39111],[103.85782,1.39474],[103.85721,1.39654],[103.85518,1.3977],[103.85239,1.39709],[103.85523,1.39922],[103.85564,1.40123],[103.85788,1.40046],[103.86097,1.40089],[103.88247,1.40144],[103.88812,1.40106]]]]}},{"type":"Feature","properties":{"id":"Mandai","name":"Mandai","forecastArea":"Mandai"},"geometry":{"type":"MultiPolygon","coordinates":[[[[103.82443,1.43508],[103.82588,1.43536],[103.82599,1.43507],[103.82661,1.43271],[103.82685,1.42825],[103.82557,1.42487],[103.82308,1.41341],[103.82077,1.41425],[103.81525,1.41358],[103.81044,1.41542],[103.80884,1.4153],[103.80613,1.41427],[103.80244,1.41621],[103.79689,1.41498],[103.78322,1.4109],[103.77596,1.41078],[103.77306,1.40995],[103.77168,1.40999],[103.77127,1.42157],[103.77464,1.42414],[103.77757,1.42559],[103.78253,1.42655],[103.78851,1.42575],[103.79497,1.42257],[103.81053,1.44043],[103.81126,1.44173],[103.8117,1.44428],[103.81748,1.4413],[103.82296,1.43571],[103.82443,1.43508]]]]}},{"type":"Feature","properties":{"id":"Seletar","name":"Seletar","forecastArea":"Seletar"},"geometry":{"type":"MultiPolygon","coordinates":[[[[103.88683,1.40145],[103.86097,1.40089],[103.85758,1.40047],[103.85564,1.40123],[103.85487,1.40269],[103.85481,1.40412],[103.85554,1.40557],[103.86025,1.40903],[103.86128,1.41046],[103.86186,1.41286],[103.86143,1.41606],[103.86206,1.41859],[103.86415,1.42205],[103.86705,1.42464],[103.86386,1.42626],[103.87967,1.44097],[103.8844,1.43508],[103.89612,1.42788],[103.90386,1.42767],[103.89559,1.41102],[103.89137,1.4064],[103.88768,1.40418],[103.88705,1.40311],[103.88683,1.40145]]]]}},{"type":"Feature","properties":{"id":"Sungei Kadut","name":"Sungei Kadut","forecastArea":"Sungei Kadut"},"geometry":{"type":"MultiPolygon","coordinates":[[[[103.75569,1.44879],[103.75899,1.44831],[103.76519,1.44299],[103.76676,1.44068],[103.76842,1.44051],[103.76875,1.43238],[103.77115,1.42402],[103.77149,1.41145],[103.77362,1.40131],[103.77444,1.39029],[103.76526,1.39054],[103.7576,1.38879],[103.75332,1.3889],[103.75199,1.39837],[103.75285,1.40282],[103.75249,1.40383],[103.75102,1.40494],[103.74581,1.40552],[103.74414,1.40608],[103.74256,1.40721],[103.74179,1.4085],[103.74156,1.41019],[103.74209,1.41398],[103.73933,1.42228],[103.74326,1.42637],[103.7436,1.42806],[103.74339,1.43067],[103.74079,1.43829],[103.73848,1.43832],[103.73805,1.43764],[103.73721,1.43741],[103.73708,1.44055],[103.74509,1.45031],[103.75569,1.44879]]]]}},{"type":"Feature","properties":{"id":"Jurong Island","name":"Jurong Island","forecastArea":"Jurong Island"},"geometry":{"type":"MultiPolygon","coordinates":[[[[103.7691,1.24991],[103.75659,1.24904],[103.73747,1.24538],[103.71373,1.23512],[103.68447,1.20975],[103.67684,1.20148],[103.64448,1.26605],[103.67273,1.2859],[103.68248,1.29372],[103.69208,1.29651],[103.71009,1.29738],[103.71544,1.29731],[103.72759,1.29412],[103.7404,1.28099],[103.76513,1.25731],[103.7691,1.24991]]]]}},{"type":"Feature","properties":{"id":"Hougang","name":"Hougang","forecastArea":"Hougang"},"geometry":{"type":"MultiPolygon","coordinates":[[[[103.89284,1.38003],[103.89485,1.38],[103.89692,1.37934],[103.90506,1.38035],[103.90794,1.37869],[103.91004,1.37586],[103.90622,1.36499],[103.902,1.35721],[103.90008,1.35696],[103.89966,1.35617],[103.89858,1.35618],[103.8972,1.35357],[103.89572,1.35398],[103.89342,1.3486],[103.89375,1.34757],[103.89617,1.34675],[103.89836,1.34744],[103.89922,1.34366],[103.89845,1.34124],[103.8963,1.33794],[103.89471,1.33632],[103.89193,1.33459],[103.88887,1.33356],[103.8866,1.33893],[103.88337,1.34253],[103.88055,1.34695],[103.87923,1.35103],[103.87653,1.35239],[103.87813,1.35382],[103.87415,1.35838],[103.87325,1.36218],[103.87637,1.36966],[103.87699,1.3742],[103.87691,1.38245],[103.87638,1.38455],[103.87313,1.38732],[103.87793,1.38867],[103.88008,1.38844],[103.88368,1.38631],[103.89065,1.38044],[103.89284,1.38003]]]]}},{"type":"Feature","properties":{"id":"Serangoon","name":"Serangoon","forecastArea":"Serangoon"},"geometry":{"type":"MultiPolygon","coordinates":[[[[103.87296,1.38732],[103.87638,1.38455],[103.87691,1.38245],[103.87699,1.3742],[103.87637,1.36966],[103.87325,1.36218],[103.87415,1.35838],[103.87813,1.35382],[103.87653,1.35239],[103.87923,1.35103],[103.88061,1.34683],[103.88337,1.34253],[103.88506,1.34086],[103.88321,1.34123],[103.877,1.34431],[103.8742,1.34348],[103.87172,1.34352],[103.86971,1.3427],[103.86513,1.34433],[103.86044,1.3434],[103.85717,1.35266],[103.85686,1.35455],[103.85709,1.35716],[103.86092,1.3689],[103.85837,1.37743],[103.85811,1.39111],[103.87296,1.38732]]]]}},{"type":"Feature","properties":{"id":"Central Water Catchment","name":"Central Water Catchment","forecastArea":"Central Water Catchment"},"geometry":{"type":"MultiPolygon","coordinates":[[[[103.80578,1.41436],[103.80875,1.40696],[103.81181,1.40273],[103.81453,1.39667],[103.81644,1.3951],[103.81882,1.39434],[103.81805,1.39014],[103.81833,1.38855],[103.81706,1.38772],[103.81674,1.38692],[103.81736,1.38639],[103.81875,1.38677],[103.81945,1.38535],[103.81934,1.38339],[103.81777,1.38031],[103.82047,1.38054],[103.82164,1.37959],[103.82276,1.37972],[103.82394,1.37865],[103.82582,1.37975],[103.82728,1.37909],[103.82771,1.37836],[103.82783,1.37741],[103.8263,1.37619],[103.82659,1.37442],[103.82632,1.37345],[103.8274,1.37296],[103.8279,1.37199],[103.82796,1.37047],[103.82733,1.36927],[103.8283,1.36747],[103.82767,1.3647],[103.82729,1.36467],[103.8271,1.36269],[103.82506,1.36349],[103.82434,1.36178],[103.82069,1.3612],[103.81854,1.35487],[103.81904,1.35418],[103.82355,1.35232],[103.82674,1.35419],[103.82982,1.35312],[103.83207,1.35082],[103.83235,1.3498],[103.83384,1.34957],[103.83561,1.34739],[103.83456,1.34768],[103.83578,1.34629],[103.83678,1.34636],[103.83708,1.34346],[103.83592,1.34271],[103.83652,1.342],[103.83297,1.34042],[103.82547,1.34122],[103.822,1.34029],[103.82006,1.33918],[103.81845,1.33549],[103.81675,1.33635],[103.81499,1.33813],[103.81358,1.3382],[103.81235,1.33896],[103.81165,1.33957],[103.81169,1.34045],[103.80986,1.34091],[103.8099,1.34174],[103.80858,1.34181],[103.80737,1.34103],[103.80421,1.34135],[103.79766,1.34813],[103.79507,1.34934],[103.79166,1.34927],[103.78944,1.35231],[103.78557,1.35486],[103.78315,1.35703],[103.78158,1.3591],[103.78026,1.36216],[103.77895,1.36899],[103.77536,1.38311],[103.77404,1.39353],[103.77362,1.40131],[103.77168,1.40999],[103.77306,1.40995],[103.77596,1.41078],[103.78322,1.4109],[103.79689,1.41498],[103.80244,1.41621],[103.80578,1.41436]]]]}},{"type":"Feature","properties":{"id":"Bishan","name":"Bishan","forecastArea":"Bishan"},"geometry":{"type":"MultiPolygon","coordinates":[[[[103.84924,1.36275],[103.85324,1.35947],[103.85522,1.35633],[103.85686,1.35551],[103.85717,1.35266],[103.86044,1.3434],[103.85419,1.3432],[103.84883,1.34395],[103.84451,1.34392],[103.84139,1.34504],[103.83652,1.342],[103.83592,1.34271],[103.83708,1.34346],[103.83678,1.34636],[103.83578,1.34629],[103.83456,1.34768],[103.83561,1.34739],[103.83384,1.34957],[103.83235,1.3498],[103.83207,1.35082],[103.82982,1.35312],[103.82674,1.35419],[103.82355,1.35232],[103.81904,1.35418],[103.81854,1.35487],[103.82069,1.3612],[103.82434,1.36178],[103.82506,1.36349],[103.8271,1.36269],[103.82833,1.36799],[103.83307,1.36742],[103.84101,1.36461],[103.84655,1.36393],[103.84924,1.36275]]]]}},{"type":"Feature","properties":{"id":"Ang Mo Kio","name":"Ang Mo Kio","forecastArea":"Ang Mo Kio"},"geometry":{"type":"MultiPolygon","coordinates":[[[[103.85721,1.39654],[103.85805,1.39317],[103.85837,1.37743],[103.86093,1.36916],[103.85686,1.35551],[103.85489,1.35665],[103.85339,1.3593],[103.85194,1.36065],[103.84762,1.36359],[103.84101,1.36461],[103.83194,1.36767],[103.82833,1.36799],[103.8283,1.36747],[103.82733,1.36927],[103.82798,1.3706],[103.82783,1.37225],[103.8274,1.37296],[103.8263,1.37351],[103.82659,1.37442],[103.82633,1.37633],[103.82783,1.37741],[103.82728,1.37909],[103.82571,1.37976],[103.82394,1.37865],[103.82276,1.37972],[103.82164,1.37959],[103.82047,1.38054],[103.81777,1.38031],[103.81934,1.38339],[103.81945,1.38535],[103.81875,1.38677],[103.81736,1.38639],[103.81674,1.38692],[103.81706,1.38772],[103.81833,1.38855],[103.81805,1.39014],[103.81882,1.39434],[103.8234,1.39314],[103.82715,1.39293],[103.84268,1.39644],[103.85007,1.39647],[103.85366,1.39761],[103.85518,1.3977],[103.85721,1.39654]]]]}},{"type":"Feature","properties":{"id":"Toa Payoh","name":"Toa Payoh","forecastArea":"Toa Payoh"},"geometry":{"type":"MultiPolygon","coordinates":[[[[103.84444,1.34394],[103.84883,1.34395],[103.85419,1.3432],[103.86145,1.3435],[103.86513,1.34433],[103.86954,1.3427],[103.87172,1.34352],[103.87409,1.34347],[103.87725,1.34425],[103.88321,1.34123],[103.88506,1.34086],[103.8866,1.33893],[103.88887,1.33356],[103.8798,1.33153],[103.86874,1.32782],[103.86167,1.33053],[103.85657,1.32912],[103.84792,1.3298],[103.8426,1.32963],[103.8405,1.329],[103.83909,1.3307],[103.83708,1.33484],[103.8373,1.33948],[103.83617,1.34179],[103.83898,1.34331],[103.84101,1.34499],[103.84205,1.34496],[103.84444,1.34394]]]]}},{"type":"Feature","properties":{"id":"Bukit Panjang","name":"Bukit Panjang","forecastArea":"Bukit Panjang"},"geometry":{"type":"MultiPolygon","coordinates":[[[[103.77084,1.39043],[103.77443,1.39046],[103.77598,1.37983],[103.77895,1.36899],[103.78026,1.36216],[103.78123,1.35975],[103.78366,1.35648],[103.78944,1.35231],[103.79166,1.34927],[103.79024,1.34881],[103.7894,1.3479],[103.78927,1.34912],[103.78777,1.34894],[103.78771,1.34937],[103.78618,1.34858],[103.78829,1.34572],[103.78793,1.34519],[103.78571,1.34393],[103.78113,1.34227],[103.77973,1.34251],[103.77773,1.34201],[103.77583,1.34412],[103.772,1.3464],[103.77028,1.34893],[103.76961,1.35312],[103.7688,1.35552],[103.76745,1.35779],[103.76708,1.36067],[103.76754,1.36449],[103.7635,1.37109],[103.76216,1.37748],[103.76105,1.3802],[103.75928,1.3833],[103.75743,1.38522],[103.75523,1.38865],[103.7576,1.38879],[103.76467,1.3905],[103.77084,1.39043]]]]}},{"type":"Feature","properties":{"id":"Sentosa","name":"Sentosa","forecastArea":"Sentosa"},"geometry":{"type":"MultiPolygon","coordinates":[[[[103.85849,1.24409],[103.83242,1.23427],[103.79627,1.21529],[103.77958,1.23384],[103.79558,1.26185],[103.80257,1.25781],[103.8057,1.26088],[103.81897,1.26079],[103.82812,1.25616],[103.83118,1.25566],[103.83615,1.2541],[103.8386,1.25543],[103.84702,1.25611],[103.85849,1.24409]]]]}},{"type":"Feature","properties":{"id":"Geylang","name":"Geylang","forecastArea":"Geylang"},"geometry":{"type":"MultiPolygon","coordinates":[[[[103.90179,1.30975],[103.89462,1.30958],[103.88972,1.30859],[103.89009,1.30714],[103.88961,1.30628],[103.88463,1.30539],[103.88373,1.30456],[103.88087,1.30691],[103.876,1.30879],[103.8747,1.31635],[103.87512,1.31886],[103.87592,1.32007],[103.87452,1.32119],[103.87069,1.32629],[103.86874,1.32782],[103.8798,1.33153],[103.89061,1.33405],[103.89374,1.3356],[103.89618,1.3378],[103.90482,1.32945],[103.90575,1.32764],[103.90498,1.3189],[103.90523,1.31687],[103.90671,1.31332],[103.90179,1.30975]]]]}},{"type":"Feature","properties":{"id":"Boon Lay","name":"Boon Lay","forecastArea":"Boon Lay"},"geometry":{"type":"MultiPolygon","coordinates":[[[[103.69492,1.29665],[103.69208,1.29651],[103.6836,1.29414],[103.68118,1.3106],[103.69079,1.31504],[103.69587,1.31525],[103.69653,1.32274],[103.69651,1.32776],[103.7067,1.32777],[103.72106,1.33165],[103.7209,1.32922],[103.71918,1.32583],[103.72035,1.31949],[103.71948,1.31431],[103.71789,1.31462],[103.70981,1.31409],[103.70995,1.29737],[103.69492,1.29665]]]]}},{"type":"Feature","properties":{"id":"Punggol","name":"Punggol","forecastArea":"Punggol"},"geometry":{"type":"MultiPolygon","coordinates":[[[[103.91428,1.38586],[103.90739,1.39385],[103.90474,1.39611],[103.90122,1.3982],[103.8952,1.40011],[103.88682,1.40118],[103.88701,1.40298],[103.88768,1.40418],[103.89137,1.4064],[103.89559,1.41102],[103.90386,1.42767],[103.91101,1.42747],[103.915,1.42663],[103.92923,1.41239],[103.93647,1.40622],[103.93215,1.40144],[103.92444,1.39806],[103.92064,1.395],[103.91666,1.39058],[103.91428,1.38586]]]]}},{"type":"Feature","properties":{"id":"Pioneer","name":"Pioneer","forecastArea":"Pioneer"},"geometry":{"type":"MultiPolygon","coordinates":[[[[103.6582,1.31232],[103.65587,1.31453],[103.6629,1.32201],[103.66651,1.32703],[103.67149,1.32995],[103.67493,1.33105],[103.67578,1.33052],[103.67945,1.3302],[103.67934,1.32777],[103.69651,1.32776],[103.69653,1.32274],[103.69587,1.31525],[103.69079,1.31504],[103.68118,1.3106],[103.6836,1.29414],[103.68248,1.29372],[103.67273,1.2859],[103.66055,1.27756],[103.64661,1.30006],[103.6582,1.31232]]]]}},{"type":"Feature","properties":{"id":"Kallang","name":"Kallang","forecastArea":"Kallang"},"geometry":{"type":"MultiPolygon","coordinates":[[[[103.86277,1.3303],[103.86727,1.32858],[103.86976,1.32713],[103.87452,1.32119],[103.87592,1.32007],[103.87512,1.31886],[103.8747,1.31635],[103.876,1.30879],[103.88087,1.30691],[103.88427,1.30397],[103.88461,1.30247],[103.88552,1.3012],[103.88532,1.29578],[103.87275,1.29536],[103.8627,1.294],[103.86155,1.29498],[103.86102,1.2976],[103.85942,1.29978],[103.86228,1.30158],[103.85963,1.30583],[103.85447,1.31062],[103.85541,1.3118],[103.85437,1.31362],[103.85309,1.312],[103.85256,1.31245],[103.85213,1.31109],[103.84876,1.30662],[103.84577,1.30984],[103.84432,1.31056],[103.84555,1.31435],[103.84671,1.3159],[103.85574,1.32109],[103.86117,1.32662],[103.86218,1.32863],[103.86235,1.33044],[103.86277,1.3303]]]]}},{"type":"Feature","properties":{"id":"Jurong West","name":"Jurong West","forecastArea":"Jurong West"},"geometry":{"type":"MultiPolygon","coordinates":[[[[103.72815,1.34812],[103.72816,1.34436],[103.72462,1.34498],[103.72185,1.34492],[103.7214,1.34278],[103.72161,1.34161],[103.72316,1.34035],[103.72504,1.33696],[103.72478,1.32868],[103.72601,1.32503],[103.7196,1.32359],[103.71918,1.32583],[103.7209,1.32922],[103.72106,1.33165],[103.7067,1.32777],[103.67934,1.32777],[103.67945,1.3302],[103.67578,1.33052],[103.67493,1.33105],[103.67763,1.33846],[103.67896,1.33934],[103.68135,1.33948],[103.68272,1.34001],[103.69067,1.34622],[103.6937,1.34949],[103.69771,1.35489],[103.70625,1.36435],[103.71492,1.35695],[103.71846,1.35571],[103.72404,1.35527],[103.72814,1.35361],[103.72815,1.34812]]]]}},{"type":"Feature","properties":{"id":"Queenstown","name":"Queenstown","forecastArea":"Queenstown"},"geometry":{"type":"MultiPolygon","coordinates":[[[[103.78473,1.31102],[103.78535,1.31109],[103.78585,1.31357],[103.78562,1.31444],[103.78505,1.31448],[103.78479,1.31501],[103.78668,1.3158],[103.7896,1.31328],[103.79118,1.31032],[103.79115,1.3113],[103.79313,1.31339],[103.79402,1.31283],[103.79476,1.31076],[103.79445,1.3103],[103.7968,1.30965],[103.79748,1.3088],[103.79763,1.30904],[103.79905,1.308],[103.79976,1.30965],[103.80032,1.30874],[103.80319,1.30672],[103.80412,1.30197],[103.80358,1.30166],[103.80442,1.29996],[103.80744,1.2986],[103.80832,1.29901],[103.80946,1.29754],[103.80928,1.29654],[103.8166,1.29677],[103.81536,1.29152],[103.80887,1.29239],[103.80499,1.28792],[103.80274,1.28619],[103.80123,1.28324],[103.80313,1.27893],[103.80201,1.27535],[103.80221,1.27269],[103.80156,1.27271],[103.77958,1.23384],[103.77512,1.23867],[103.76513,1.25731],[103.74057,1.28084],[103.75735,1.29821],[103.76102,1.30103],[103.76233,1.30134],[103.76617,1.29303],[103.76737,1.29165],[103.76949,1.29479],[103.76985,1.3003],[103.77079,1.30239],[103.77217,1.31136],[103.7712,1.31873],[103.77868,1.31309],[103.78473,1.31102]]]]}},{"type":"Feature","properties":{"id":"Tanglin","name":"Tanglin","forecastArea":"Tanglin"},"geometry":{"type":"MultiPolygon","coordinates":[[[[103.82994,1.31926],[103.83534,1.31737],[103.82943,1.3126],[103.82792,1.312],[103.82673,1.30907],[103.82777,1.30794],[103.82746,1.30712],[103.82495,1.30554],[103.82266,1.30505],[103.82347,1.30382],[103.82325,1.30134],[103.82359,1.30062],[103.8265,1.2992],[103.82995,1.2992],[103.83024,1.29595],[103.83181,1.29215],[103.8286,1.29272],[103.82439,1.29193],[103.82169,1.29353],[103.81787,1.29393],[103.81743,1.29431],[103.81597,1.29409],[103.8166,1.29677],[103.80928,1.29654],[103.80946,1.29754],[103.80832,1.29901],[103.80744,1.2986],[103.80442,1.29996],[103.80358,1.30166],[103.80412,1.30197],[103.80328,1.30652],[103.80227,1.3072],[103.80464,1.31437],[103.80899,1.3187],[103.81159,1.32014],[103.81299,1.3217],[103.81335,1.32327],[103.81894,1.32266],[103.82994,1.31926]]]]}},{"type":"Feature","properties":{"id":"Bukit Timah","name":"Bukit Timah","forecastArea":"Bukit Timah"},"geometry":{"type":"MultiPolygon","coordinates":[[[[103.79766,1.34813],[103.80421,1.34135],[103.80737,1.34103],[103.80858,1.34181],[103.8099,1.34174],[103.80986,1.34091],[103.81169,1.34045],[103.81165,1.33957],[103.81235,1.33896],[103.81358,1.3382],[103.81499,1.33813],[103.81675,1.33635],[103.81845,1.33549],[103.81402,1.32841],[103.81299,1.3217],[103.81159,1.32014],[103.80899,1.3187],[103.80519,1.31522],[103.80227,1.3072],[103.79976,1.30965],[103.79905,1.308],[103.79763,1.30904],[103.79748,1.3088],[103.7968,1.30965],[103.79445,1.3103],[103.79476,1.31076],[103.79402,1.31283],[103.79313,1.31339],[103.79115,1.3113],[103.79118,1.31032],[103.7896,1.31328],[103.78668,1.3158],[103.78479,1.31501],[103.78505,1.31448],[103.78562,1.31444],[103.78585,1.31357],[103.78535,1.31109],[103.77868,1.31309],[103.7712,1.31873],[103.77108,1.31919],[103.77078,1.32094],[103.7711,1.32189],[103.77278,1.3244],[103.77476,1.3254],[103.77559,1.32646],[103.76912,1.32999],[103.76813,1.33121],[103.76545,1.33179],[103.76461,1.33282],[103.76564,1.33245],[103.7656,1.33578],[103.76533,1.33545],[103.7645,1.33661],[103.76415,1.33936],[103.76469,1.33958],[103.76512,1.34211],[103.7669,1.34222],[103.76713,1.34279],[103.76575,1.34369],[103.76537,1.34462],[103.7642,1.34502],[103.76318,1.34671],[103.767,1.34724],[103.77028,1.34893],[103.772,1.3464],[103.77583,1.34412],[103.77773,1.34201],[103.78192,1.3425],[103.78769,1.34496],[103.78829,1.34572],[103.78618,1.34858],[103.78771,1.34937],[103.78777,1.34894],[103.78938,1.34907],[103.7894,1.3479],[103.79024,1.34881],[103.79403,1.34953],[103.79766,1.34813]]]]}},{"type":"Feature","properties":{"id":"Paya Lebar","name":"Paya Lebar","forecastArea":"Paya Lebar"},"geometry":{"type":"MultiPolygon","coordinates":[[[[103.91854,1.38129],[103.92222,1.37896],[103.92851,1.37725],[103.93189,1.37578],[103.9304,1.37186],[103.93093,1.36611],[103.93094,1.36068],[103.93044,1.35827],[103.92529,1.34892],[103.92422,1.34804],[103.91925,1.34572],[103.91693,1.34376],[103.9159,1.34228],[103.913,1.34446],[103.90887,1.34083],[103.90853,1.34112],[103.90869,1.34054],[103.90759,1.33916],[103.90233,1.3392],[103.9021,1.3387],[103.89933,1.33957],[103.89794,1.34036],[103.89922,1.34366],[103.89836,1.34744],[103.89617,1.34675],[103.89375,1.34757],[103.89342,1.3486],[103.89572,1.35398],[103.8972,1.35357],[103.89858,1.35618],[103.89966,1.35617],[103.90008,1.35696],[103.902,1.35721],[103.90622,1.36499],[103.90945,1.37465],[103.91081,1.37687],[103.9154,1.37983],[103.9175,1.38236],[103.91854,1.38129]]]]}},{"type":"Feature","properties":{"id":"Pasir Ris","name":"Pasir Ris","forecastArea":"Pasir Ris"},"geometry":{"type":"MultiPolygon","coordinates":[[[[103.95695,1.39202],[103.9615,1.3922],[103.96719,1.39376],[103.97465,1.38596],[103.97855,1.37902],[103.97811,1.37727],[103.9749,1.374],[103.97566,1.37328],[103.97933,1.37231],[103.9799,1.37158],[103.97988,1.3705],[103.97584,1.36687],[103.97421,1.36293],[103.97155,1.36151],[103.97028,1.36021],[103.96828,1.35409],[103.96429,1.3527],[103.96201,1.35888],[103.96005,1.3616],[103.95779,1.36355],[103.95429,1.36526],[103.94562,1.36749],[103.94399,1.3684],[103.94108,1.37098],[103.93477,1.37445],[103.92902,1.37708],[103.92323,1.37859],[103.92065,1.3797],[103.91854,1.38129],[103.91428,1.38586],[103.91666,1.39058],[103.92064,1.395],[103.92444,1.39806],[103.93215,1.40144],[103.93647,1.40622],[103.95006,1.39492],[103.95369,1.39297],[103.95695,1.39202]]]]}},{"type":"Feature","properties":{"id":"Woodlands","name":"Woodlands","forecastArea":"Woodlands"},"geometry":{"type":"MultiPolygon","coordinates":[[[[103.79179,1.46204],[103.79281,1.46047],[103.79331,1.46047],[103.79495,1.45762],[103.79757,1.45552],[103.8005,1.45667],[103.80123,1.45403],[103.80399,1.44863],[103.80719,1.44617],[103.8117,1.44428],[103.81094,1.44105],[103.79497,1.42257],[103.78851,1.42575],[103.78253,1.42655],[103.77757,1.42559],[103.77464,1.42414],[103.77127,1.42157],[103.77089,1.42539],[103.76875,1.43238],[103.76842,1.44051],[103.76676,1.44068],[103.76519,1.44299],[103.75899,1.44831],[103.76932,1.45265],[103.78926,1.46552],[103.79179,1.46204]]]]}},{"type":"Feature","properties":{"id":"Jurong East","name":"Jurong East","forecastArea":"Jurong East"},"geometry":{"type":"MultiPolygon","coordinates":[[[[103.7404,1.28099],[103.72759,1.29412],[103.71544,1.29731],[103.70995,1.29737],[103.70981,1.31409],[103.71789,1.31462],[103.71948,1.31431],[103.72035,1.31949],[103.7196,1.32359],[103.72601,1.32503],[103.72478,1.32868],[103.72504,1.33696],[103.72316,1.34035],[103.72161,1.34161],[103.7214,1.34278],[103.72185,1.34492],[103.72462,1.34498],[103.72816,1.34436],[103.72814,1.35361],[103.7321,1.35111],[103.73718,1.34605],[103.73923,1.34519],[103.7435,1.34451],[103.74942,1.34127],[103.74863,1.33949],[103.74999,1.32708],[103.75218,1.3229],[103.75125,1.32016],[103.74763,1.31375],[103.74769,1.30993],[103.74795,1.30933],[103.75023,1.30916],[103.75275,1.30761],[103.75735,1.29821],[103.7404,1.28099]]]]}},{"type":"Feature","properties":{"id":"Choa Chu Kang","name":"Choa Chu Kang","forecastArea":"Choa Chu Kang"},"geometry":{"type":"MultiPolygon","coordinates":[[[[103.7466,1.40541],[103.75102,1.40494],[103.75249,1.40383],[103.75285,1.40282],[103.75199,1.39837],[103.75332,1.3889],[103.75523,1.38865],[103.75743,1.38522],[103.75928,1.3833],[103.76123,1.37967],[103.75381,1.37628],[103.75271,1.37479],[103.75168,1.37222],[103.74849,1.36905],[103.74509,1.37188],[103.74015,1.37306],[103.73804,1.37402],[103.73498,1.37639],[103.7327,1.37891],[103.74157,1.38661],[103.74029,1.38949],[103.74029,1.39152],[103.74266,1.39611],[103.74391,1.40273],[103.74602,1.40549],[103.7466,1.40541]]]]}},{"type":"Feature","properties":{"id":"Clementi","name":"Clementi","forecastArea":"Clementi"},"geometry":{"type":"MultiPolygon","coordinates":[[[[103.76707,1.3312],[103.76813,1.33121],[103.76912,1.32999],[103.77559,1.32646],[103.77476,1.3254],[103.77278,1.3244],[103.77085,1.32127],[103.77194,1.31512],[103.77217,1.31136],[103.77079,1.30239],[103.76985,1.3003],[103.76949,1.29479],[103.76737,1.29165],[103.76617,1.29303],[103.76233,1.30134],[103.76102,1.30103],[103.75735,1.29821],[103.75275,1.30761],[103.75023,1.30916],[103.7478,1.30948],[103.74763,1.31375],[103.75125,1.32016],[103.75218,1.3229],[103.75006,1.32664],[103.74875,1.34014],[103.74942,1.34127],[103.76461,1.33282],[103.76545,1.33179],[103.76707,1.3312]]]]}},{"type":"Feature","properties":{"id":"Bukit Batok","name":"Bukit Batok","forecastArea":"Bukit Batok"},"geometry":{"type":"MultiPolygon","coordinates":[[[[103.76392,1.37025],[103.76768,1.36404],[103.76708,1.36067],[103.76745,1.35779],[103.7688,1.35552],[103.76961,1.35312],[103.77028,1.34893],[103.767,1.34724],[103.76318,1.34671],[103.7642,1.34502],[103.76537,1.34462],[103.76575,1.34369],[103.76713,1.34279],[103.7669,1.34222],[103.76512,1.34211],[103.76469,1.33958],[103.76415,1.33936],[103.7645,1.33661],[103.76533,1.33545],[103.7656,1.33578],[103.76564,1.33245],[103.74401,1.3443],[103.73923,1.34519],[103.7372,1.34604],[103.73833,1.34879],[103.73657,1.35441],[103.73725,1.35705],[103.74432,1.36537],[103.75128,1.37173],[103.75297,1.37521],[103.75429,1.37663],[103.76123,1.37967],[103.76216,1.37748],[103.76311,1.37228],[103.76392,1.37025]]]]}},{"type":"Feature","properties":{"id":"Tuas","name":"Tuas","forecastArea":"Tuas"},"geometry":{"type":"MultiPolygon","coordinates":[[[[103.66718,1.32833],[103.66772,1.32799],[103.66586,1.3263],[103.6629,1.32201],[103.65587,1.31453],[103.6582,1.31232],[103.64661,1.30006],[103.66055,1.27756],[103.64448,1.26605],[103.67684,1.2015],[103.67609,1.19577],[103.60121,1.2151],[103.60121,1.2641],[103.61448,1.31423],[103.6154,1.31534],[103.61615,1.32154],[103.62837,1.34098],[103.63387,1.35195],[103.63545,1.35602],[103.6449,1.34787],[103.64696,1.34545],[103.64988,1.34488],[103.65171,1.34347],[103.65208,1.34235],[103.65142,1.33979],[103.65196,1.33876],[103.65673,1.33454],[103.65714,1.33357],[103.66545,1.33014],[103.66718,1.32833]]]]}},{"type":"Feature","properties":{"id":"Jalan Bahar","name":"Jalan Bahar","forecastArea":"Jalan Bahar"},"geometry":{"type":"MultiPolygon","coordinates":[[[[103.66772,1.32799],[103.66543,1.33015],[103.65713,1.33358],[103.65672,1.33455],[103.65195,1.33878],[103.65141,1.33981],[103.652,1.34245],[103.65171,1.34352],[103.64985,1.34494],[103.64687,1.34548],[103.64486,1.34788],[103.63547,1.35609],[103.64437,1.37354],[103.6697,1.37266],[103.67136,1.36621],[103.67376,1.36679],[103.67317,1.37144],[103.67107,1.37447],[103.67366,1.38107],[103.69515,1.37378],[103.69388,1.36758],[103.69271,1.36464],[103.69481,1.35741],[103.69774,1.35491],[103.69364,1.34949],[103.69065,1.34626],[103.68268,1.34005],[103.68127,1.33956],[103.67887,1.33932],[103.67755,1.33844],[103.67554,1.33194],[103.67491,1.33106],[103.67149,1.32993],[103.66772,1.32799]]]]}},{"type":"Feature","properties":{"id":"Western Water Catchment","name":"Western Water Catchment","forecastArea":"Western Water Catchment"},"geometry":{"type":"MultiPolygon","coordinates":[[[[103.64433,1.37365],[103.65127,1.387],[103.65174,1.39131],[103.65551,1.40039],[103.6642,1.41226],[103.66765,1.4157],[103.67215,1.4281],[103.68163,1.43724],[103.69085,1.43949],[103.6933,1.43267],[103.69423,1.43254],[103.69516,1.43148],[103.69569,1.4277],[103.69702,1.42624],[103.69688,1.42432],[103.7,1.42319],[103.69861,1.41862],[103.70146,1.41809],[103.69962,1.41302],[103.70214,1.40559],[103.70021,1.40089],[103.69663,1.37948],[103.69518,1.37385],[103.67356,1.38107],[103.67104,1.37451],[103.67323,1.37146],[103.6737,1.36682],[103.67124,1.36623],[103.66972,1.37272],[103.64433,1.37365]]]]}},{"type":"Feature","properties":{"id":"Yishun","name":"Yishun","forecastArea":"Yishun"},"geometry":{"type":"MultiPolygon","coordinates":[[[[103.86406,1.42645],[103.86705,1.42464],[103.86415,1.42205],[103.86206,1.41859],[103.86143,1.41606],[103.86178,1.4121],[103.86089,1.40978],[103.85506,1.40487],[103.85487,1.40269],[103.85571,1.40071],[103.85523,1.39922],[103.85239,1.39709],[103.85104,1.3966],[103.84268,1.39644],[103.82737,1.39295],[103.8234,1.39314],[103.81563,1.39557],[103.81411,1.39735],[103.81181,1.40273],[103.80875,1.40696],[103.80578,1.41436],[103.81044,1.41542],[103.81525,1.41358],[103.82077,1.41425],[103.82308,1.41341],[103.82557,1.42487],[103.82685,1.42825],[103.82661,1.43271],[103.8258,1.43567],[103.82776,1.4365],[103.82905,1.43797],[103.83031,1.44163],[103.83671,1.4456],[103.83306,1.45139],[103.85385,1.46437],[103.85693,1.46288],[103.86643,1.45647],[103.87329,1.44891],[103.87967,1.44097],[103.86406,1.42645]]]]}},{"type":"Feature","properties":{"id":"Pulau Tekong","name":"Pulau Tekong","forecastArea":"Pulau Tekong"},"geometry":{"type":"MultiPolygon","coordinates":[[[[104.00122,1.42067],[104.02155,1.43924],[104.03914,1.44375],[104.0556,1.43969],[104.06914,1.43462],[104.07478,1.43079],[104.08357,1.42121],[104.08684,1.41737],[104.08899,1.41241],[104.09079,1.40632],[104.09124,1.40001],[104.09068,1.39381],[104.08786,1.38434],[104.07308,1.37893],[104.05301,1.37363],[104.04309,1.36177],[104.00015,1.39476],[104.00122,1.42067]]]]}},{"type":"Feature","properties":{"id":"Pulau Ubin","name":"Pulau Ubin","forecastArea":"Pulau Ubin"},"geometry":{"type":"MultiPolygon","coordinates":[[[[104.00106,1.42061],[104.00002,1.39496],[103.9963,1.39637],[103.98868,1.39795],[103.98564,1.39818],[103.98079,1.39778],[103.96145,1.39248],[103.95666,1.3926],[103.95401,1.39316],[103.95147,1.39429],[103.94865,1.39632],[103.92942,1.41244],[103.91498,1.42664],[103.93173,1.43042],[103.93585,1.43039],[103.94081,1.42783],[103.95567,1.42442],[103.95891,1.42476],[103.96494,1.42219],[103.97058,1.42191],[103.97811,1.42439],[103.98175,1.42428],[103.9844,1.42493],[103.99119,1.42495],[104.00106,1.42061]]]]}},{"type":"Feature","properties":{"id":"Western Islands","name":"Western Islands","forecastArea":"Western Islands"},"geometry":{"type":"MultiPolygon","coordinates":[[[[103.67684,1.20148],[103.68446,1.20975],[103.71373,1.23512],[103.73749,1.24535],[103.7566,1.24903],[103.7691,1.24991],[103.77512,1.23867],[103.81803,1.19111],[103.79266,1.18091],[103.73859,1.14953],[103.67609,1.19577],[103.67684,1.20148]]]]}},{"type":"Feature","properties":{"id":"Southern Islands","name":"Southern Islands","forecastArea":"Southern Islands"},"geometry":{"type":"MultiPolygon","coordinates":[[[[103.79627,1.21529],[103.83244,1.23422],[103.85849,1.24409],[103.8639,1.23841],[103.87542,1.21681],[103.85662,1.20661],[103.81803,1.19111],[103.79627,1.21529]]]]}},{"type":"Feature","properties":{"id":"Tengah","name":"Tengah","forecastArea":"Tengah"},"geometry":{"type":"MultiPolygon","coordinates":[[[[103.69768,1.35493],[103.69483,1.35745],[103.69271,1.3646],[103.69383,1.36778],[103.69503,1.37382],[103.69662,1.37958],[103.70026,1.40092],[103.70205,1.40576],[103.69953,1.41305],[103.70086,1.41689],[103.70179,1.4165],[103.70225,1.41517],[103.7053,1.41226],[103.70895,1.41245],[103.71081,1.41305],[103.71293,1.41285],[103.71458,1.41451],[103.71564,1.41451],[103.71697,1.41345],[103.7185,1.41113],[103.72824,1.41133],[103.73925,1.42233],[103.74203,1.41405],[103.7415,1.41033],[103.74183,1.40821],[103.74342,1.40649],[103.74601,1.4055],[103.74349,1.40218],[103.74263,1.39615],[103.74017,1.39158],[103.74024,1.38959],[103.74163,1.38667],[103.73268,1.37892],[103.73498,1.37639],[103.73804,1.37402],[103.74015,1.37306],[103.74571,1.37156],[103.74849,1.36905],[103.74432,1.36537],[103.73698,1.35661],[103.73667,1.35388],[103.73833,1.34879],[103.7372,1.34604],[103.7321,1.35111],[103.72772,1.35383],[103.72404,1.35527],[103.71789,1.35582],[103.71448,1.35718],[103.70625,1.36435],[103.70398,1.36222],[103.69768,1.35493]]]]}},{"type":"Feature","properties":{"id":"Tampines","name":"Tampines","forecastArea":"Tampines"},"geometry":{"type":"MultiPolygon","coordinates":[[[[103.98443,1.30949],[103.97171,1.31048],[103.96651,1.30877],[103.96026,1.32154],[103.95417,1.3266],[103.94898,1.33433],[103.93865,1.33649],[103.92976,1.34525],[103.92497,1.34859],[103.93083,1.35942],[103.93093,1.36611],[103.9304,1.37186],[103.93189,1.37578],[103.93984,1.37175],[103.94464,1.36796],[103.95491,1.36504],[103.95906,1.36256],[103.9621,1.35871],[103.9653,1.34974],[103.97063,1.34149],[103.97242,1.34016],[103.97984,1.33684],[103.97964,1.33645],[103.98475,1.33449],[103.97959,1.3222],[103.9805,1.32087],[103.98482,1.319],[103.98235,1.31316],[103.98443,1.30949]]]]}},{"type":"Feature","properties":{"id":"Changi","name":"Changi","forecastArea":"Changi"},"geometry":{"type":"MultiPolygon","coordinates":[[[[104.03634,1.3092],[103.98443,1.30949],[103.98235,1.31316],[103.98482,1.319],[103.9805,1.32087],[103.97959,1.3222],[103.98475,1.33449],[103.97964,1.33645],[103.97984,1.33684],[103.97128,1.3409],[103.97026,1.34191],[103.96516,1.35003],[103.96429,1.3527],[103.96828,1.35409],[103.97028,1.36021],[103.97155,1.36151],[103.97421,1.36293],[103.97584,1.36687],[103.97911,1.36958],[103.97998,1.37092],[103.97933,1.37231],[103.97566,1.37328],[103.9749,1.374],[103.97811,1.37727],[103.97855,1.37902],[103.97465,1.38596],[103.96719,1.39376],[103.98068,1.39747],[103.98693,1.39794],[103.99621,1.39617],[104.0004,1.39466],[104.05117,1.35543],[104.04236,1.34855],[104.03435,1.32549],[104.03634,1.3092]]]]}},{"type":"Feature","properties":{"id":"Marine Parade","name":"Marine Parade","forecastArea":"Marine Parade"},"geometry":{"type":"MultiPolygon","coordinates":[[[[103.92343,1.29456],[103.90279,1.28775],[103.88629,1.27544],[103.88141,1.28446],[103.87542,1.29159],[103.87588,1.29366],[103.87668,1.29491],[103.87767,1.29552],[103.88532,1.29578],[103.88552,1.3012],[103.88373,1.30456],[103.88463,1.30539],[103.88961,1.30628],[103.89009,1.30714],[103.88972,1.30859],[103.89462,1.30958],[103.9015,1.30954],[103.90671,1.31332],[103.90998,1.30555],[103.91825,1.3075],[103.91987,1.30022],[103.92167,1.29796],[103.92343,1.29456]]]]}},{"type":"Feature","properties":{"id":"City","name":"City","forecastArea":"City"},"geometry":{"type":"MultiPolygon","coordinates":[[[[103.88629,1.27544],[103.85259,1.25028],[103.84702,1.25611],[103.84652,1.25607],[103.85207,1.26145],[103.85067,1.26304],[103.8518,1.26357],[103.85157,1.26924],[103.84568,1.27256],[103.84215,1.27259],[103.84154,1.27437],[103.84137,1.27415],[103.8406,1.27755],[103.83924,1.28079],[103.83549,1.28382],[103.83477,1.28618],[103.835,1.28727],[103.83518,1.28696],[103.83492,1.28958],[103.83343,1.29237],[103.83181,1.29215],[103.83034,1.29561],[103.82995,1.2992],[103.82624,1.29927],[103.82378,1.30049],[103.82327,1.30117],[103.82338,1.30417],[103.82266,1.30505],[103.8251,1.30562],[103.82746,1.30712],[103.82769,1.30809],[103.82673,1.30907],[103.828,1.31209],[103.82943,1.3126],[103.83534,1.31737],[103.83953,1.31274],[103.84577,1.30984],[103.84704,1.30814],[103.84876,1.30662],[103.85213,1.31109],[103.85256,1.31245],[103.85309,1.312],[103.85437,1.31362],[103.85541,1.3118],[103.85447,1.31062],[103.85963,1.30583],[103.86228,1.30158],[103.85942,1.29978],[103.85918,1.29998],[103.86099,1.29767],[103.86164,1.29483],[103.86346,1.29387],[103.87162,1.29525],[103.87767,1.29552],[103.87613,1.29408],[103.87552,1.29267],[103.87548,1.29128],[103.88141,1.28446],[103.88629,1.27544]]]]}},{"type":"Feature","properties":{"id":"Bedok","name":"Bedok","forecastArea":"Bedok"},"geometry":{"type":"MultiPolygon","coordinates":[[[[103.96654,1.30878],[103.92343,1.29456],[103.92167,1.29796],[103.91987,1.30022],[103.91825,1.3075],[103.90998,1.30555],[103.90849,1.30832],[103.90522,1.31693],[103.90498,1.31924],[103.90585,1.32676],[103.90547,1.32849],[103.89618,1.3378],[103.89794,1.34036],[103.9021,1.3387],[103.90233,1.3392],[103.90759,1.33916],[103.90869,1.34054],[103.90853,1.34112],[103.90887,1.34083],[103.913,1.34446],[103.9159,1.34228],[103.91693,1.34376],[103.91925,1.34572],[103.92497,1.34859],[103.92976,1.34525],[103.93877,1.33642],[103.94898,1.33433],[103.95417,1.3266],[103.9604,1.32137],[103.96654,1.30878]]]]}}]}